<?xml version="1.0" encoding="utf-8"?>
<gpx xmlns="http://www.topografix.com/GPX/1/1" xmlns:xsd="http://www.w3.org/2001/XMLSchema" xmlns:xsi="http://www.w3.org/2001/XMLSchema-instance" xmlns:mytracks="http://mytracks.stichling.info/myTracksGPX/1/0" creator="myTracks" version="1.1" xsi:schemaLocation="http://www.topografix.com/GPX/1/1 http://www.topografix.com/GPX/1/1/gpx.xsd"><trk><name>2025-12-30 20:32:06</name><extensions><mytracks:color red="0.000000" green="0.000000" blue="1.000000" alpha="1.000000"/><mytracks:area showArea="no" areaDistance="0.000000"/><mytracks:directionArrows showDirectionArrows="yes"/><mytracks:sync syncPhotosOniPhone="no"/><mytracks:timezone offset="540"/></extensions><trkseg><trkpt lat="33.59564733694642" lon="130.3643355612926"><ele>8.114894866943359</ele><time>2025-12-30T11:32:06.00000Z</time><extensions><mytracks:speed>0</mytracks:speed><mytracks:gradient>0</mytracks:gradient><mytracks:length>0</mytracks:length></extensions></trkpt><trkpt lat="33.59575957062989" lon="130.3641937394909"><ele>1.795619964599609</ele><time>2025-12-30T11:32:35.00000Z</time><extensions><mytracks:speed>2.249189458220826</mytracks:speed><mytracks:length>0.01811847063566776</mytracks:length></extensions></trkpt><trkpt lat="33.59580058471474" lon="130.3641550629761"><ele>1.766502729212415</ele><time>2025-12-30T11:32:39.00000Z</time><extensions><mytracks:speed>5.218247132871457</mytracks:speed><mytracks:length>0.005798052369857174</mytracks:length></extensions></trkpt><trkpt lat="33.59583347294361" lon="130.3641094135815"><ele>2.163942834548652</ele><time>2025-12-30T11:32:45.00000Z</time><extensions><mytracks:speed>3.353460902959251</mytracks:speed><mytracks:gradient>0.07110983849291654</mytracks:gradient><mytracks:length>0.005589101504932085</mytracks:length></extensions></trkpt><trkpt lat="33.59586877597972" lon="130.3640671663482"><ele>2.301015585847199</ele><time>2025-12-30T11:32:50.00000Z</time><extensions><mytracks:speed>3.990340970605298</mytracks:speed><mytracks:gradient>0.02473281899014826</mytracks:gradient><mytracks:length>0.005542140236951803</mytracks:length></extensions></trkpt><trkpt lat="33.59590814001049" lon="130.364025788282"><ele>2.032485321350396</ele><time>2025-12-30T11:32:55.00000Z</time><extensions><mytracks:speed>4.188006512901994</mytracks:speed><mytracks:length>0.005816675712363882</mytracks:length></extensions></trkpt><trkpt lat="33.59591322990919" lon="130.3639903746395"><ele>5.453544177720453</ele><time>2025-12-30T11:33:00.00000Z</time><extensions><mytracks:speed>2.395297149457812</mytracks:speed><mytracks:gradient>1.028332696485692</mytracks:gradient><mytracks:length>0.003326801596469183</mytracks:length></extensions></trkpt><trkpt lat="33.59593958722401" lon="130.3639509717024"><ele>6.7876964299765</ele><time>2025-12-30T11:33:04.00000Z</time><extensions><mytracks:speed>4.212721087750741</mytracks:speed><mytracks:gradient>0.2850264714941146</mytracks:gradient><mytracks:length>0.004680801208611934</mytracks:length></extensions></trkpt><trkpt lat="33.59613627913849" lon="130.3637228152031"><ele>6.963789745185559</ele><time>2025-12-30T11:33:33.00000Z</time><extensions><mytracks:speed>3.775326998560079</mytracks:speed><mytracks:gradient>0.005790189784194316</mytracks:gradient><mytracks:length>0.03041235637728953</mytracks:length></extensions></trkpt><trkpt lat="33.59628426872361" lon="130.3635338249836"><ele>6.734881695747231</ele><time>2025-12-30T11:33:56.00000Z</time><extensions><mytracks:speed>3.760406768362329</mytracks:speed><mytracks:length>0.02402482102009266</mytracks:length></extensions></trkpt><trkpt lat="33.59643655001657" lon="130.3632724778809"><ele>6.387273554066318</ele><time>2025-12-30T11:34:30.00000Z</time><extensions><mytracks:speed>3.127843781869408</mytracks:speed><mytracks:length>0.02954074682876663</mytracks:length></extensions></trkpt><trkpt lat="33.59654883849618" lon="130.363058086357"><ele>6.1038878277457</ele><time>2025-12-30T11:34:57.00000Z</time><extensions><mytracks:speed>3.127509356807722</mytracks:speed><mytracks:length>0.02345632017605791</mytracks:length></extensions></trkpt><trkpt lat="33.59654950611862" lon="130.3626847898853"><ele>5.919095717975052</ele><time>2025-12-30T11:35:39.00000Z</time><extensions><mytracks:speed>2.96357926592091</mytracks:speed><mytracks:length>0.03457509143574395</mytracks:length></extensions></trkpt><trkpt lat="33.59651469939334" lon="130.3623030206684"><ele>5.690392107548075</ele><time>2025-12-30T11:36:20.00000Z</time><extensions><mytracks:speed>3.123283129697476</mytracks:speed><mytracks:length>0.03557072453266569</mytracks:length></extensions></trkpt><trkpt lat="33.59648330111794" lon="130.3619796088873"><ele>5.505158468773561</ele><time>2025-12-30T11:36:54.00000Z</time><extensions><mytracks:speed>3.193111624328845</mytracks:speed><mytracks:length>0.03015716534088353</mytracks:length></extensions></trkpt><trkpt lat="33.59614432978056" lon="130.3585139595796"><ele>3.272915041074157</ele><time>2025-12-30T11:43:03.00000Z</time><extensions><mytracks:speed>3.153129884974992</mytracks:speed><mytracks:length>0.3231958132099367</mytracks:length></extensions></trkpt><trkpt lat="33.59607984014224" lon="130.3583368393264"><ele>3.387825941666961</ele><time>2025-12-30T11:43:17.00000Z</time><extensions><mytracks:speed>4.603834414037498</mytracks:speed><mytracks:gradient>0.006418240674598636</mytracks:gradient><mytracks:length>0.01790380049903471</mytracks:length></extensions></trkpt><trkpt lat="33.59606522085556" lon="130.358284775519"><ele>2.735604802487602</ele><time>2025-12-30T11:43:22.00000Z</time><extensions><mytracks:speed>3.664406089243364</mytracks:speed><mytracks:length>0.005089452901726895</mytracks:length></extensions></trkpt><trkpt lat="33.59603851632431" lon="130.3582382112617"><ele>2.756413080155518</ele><time>2025-12-30T11:43:26.00000Z</time><extensions><mytracks:speed>4.711708752608525</mytracks:speed><mytracks:gradient>0.003974662035457249</mytracks:gradient><mytracks:length>0.005235231947342806</mytracks:length></extensions></trkpt><trkpt lat="33.59600600251987" lon="130.3582011068575"><ele>2.984467945515542</ele><time>2025-12-30T11:43:31.00000Z</time><extensions><mytracks:speed>3.591645110307343</mytracks:speed><mytracks:gradient>0.0457170733789915</mytracks:gradient><mytracks:length>0.004988395986537977</mytracks:length></extensions></trkpt><trkpt lat="33.59597971242736" lon="130.3581560562222"><ele>3.355513119713929</ele><time>2025-12-30T11:43:36.00000Z</time><extensions><mytracks:speed>3.668229153495708</mytracks:speed><mytracks:gradient>0.07282874494584146</mytracks:gradient><mytracks:length>0.005094762713188484</mytracks:length></extensions></trkpt><trkpt lat="33.59595570805747" lon="130.3581117757542"><ele>3.461771190323934</ele><time>2025-12-30T11:43:42.00000Z</time><extensions><mytracks:speed>2.935573803948204</mytracks:speed><mytracks:gradient>0.02171801719999528</mytracks:gradient><mytracks:length>0.00489262300658034</mytracks:length></extensions></trkpt><trkpt lat="33.59593129063087" lon="130.3580673869405"><ele>3.90477729644514</ele><time>2025-12-30T11:43:46.00000Z</time><extensions><mytracks:speed>4.433925625124246</mytracks:speed><mytracks:gradient>0.08992155692686277</mytracks:gradient><mytracks:length>0.004926584027915829</mytracks:length></extensions></trkpt><trkpt lat="33.59590549745221" lon="130.3580315240498"><ele>4.411083483901938</ele><time>2025-12-30T11:43:52.00000Z</time><extensions><mytracks:speed>2.633184131916074</mytracks:speed><mytracks:gradient>0.1153674400479644</mytracks:gradient><mytracks:length>0.004388640219860124</mytracks:length></extensions></trkpt><trkpt lat="33.5958838297346" lon="130.3579932927604"><ele>5.218819615209946</ele><time>2025-12-30T11:43:57.00000Z</time><extensions><mytracks:speed>3.083489124690337</mytracks:speed><mytracks:gradient>0.1886077722424822</mytracks:gradient><mytracks:length>0.004282623784292135</mytracks:length></extensions></trkpt><trkpt lat="33.5958639475387" lon="130.3579539203256"><ele>5.680338223614676</ele><time>2025-12-30T11:44:01.00000Z</time><extensions><mytracks:speed>3.838228343818413</mytracks:speed><mytracks:gradient>0.1082183524159573</mytracks:gradient><mytracks:length>0.004264698159798237</mytracks:length></extensions></trkpt><trkpt lat="33.59583965844375" lon="130.3579166437985"><ele>6.023656289165821</ele><time>2025-12-30T11:44:06.00000Z</time><extensions><mytracks:speed>3.156862323794432</mytracks:speed><mytracks:gradient>0.07830211831972206</mytracks:gradient><mytracks:length>0.004384531005270044</mytracks:length></extensions></trkpt><trkpt lat="33.59581998849217" lon="130.3578862086692"><ele>6.159568062504402</ele><time>2025-12-30T11:44:11.00000Z</time><extensions><mytracks:speed>2.568488127571376</mytracks:speed><mytracks:gradient>0.03809886281090425</mytracks:gradient><mytracks:length>0.003567344621626911</mytracks:length></extensions></trkpt><trkpt lat="33.59580086227136" lon="130.3578506457346"><ele>6.502758765643939</ele><time>2025-12-30T11:44:17.00000Z</time><extensions><mytracks:speed>2.352710450706373</mytracks:speed><mytracks:gradient>0.08752221159297323</mytracks:gradient><mytracks:length>0.003921184084510621</mytracks:length></extensions></trkpt><trkpt lat="33.59578422083578" lon="130.3578037300286"><ele>6.687862573031869</ele><time>2025-12-30T11:44:22.00000Z</time><extensions><mytracks:speed>3.399852390239563</mytracks:speed><mytracks:gradient>0.0392001551896547</mytracks:gradient><mytracks:length>0.00472201720866606</mytracks:length></extensions></trkpt><trkpt lat="33.59577112794359" lon="130.3577589376283"><ele>6.722056183182064</ele><time>2025-12-30T11:44:27.00000Z</time><extensions><mytracks:speed>3.165729932059393</mytracks:speed><mytracks:gradient>0.007776847626457227</mytracks:gradient><mytracks:length>0.004396847127860267</mytracks:length></extensions></trkpt><trkpt lat="33.59575837962847" lon="130.357713859091"><ele>6.864198950243101</ele><time>2025-12-30T11:44:32.00000Z</time><extensions><mytracks:speed>3.175308561913222</mytracks:speed><mytracks:gradient>0.0322308179782949</mytracks:gradient><mytracks:length>0.004410150780435031</mytracks:length></extensions></trkpt><trkpt lat="33.59575036235218" lon="130.35766994166"><ele>7.152148969059521</ele><time>2025-12-30T11:44:36.00000Z</time><extensions><mytracks:speed>3.748742364411696</mytracks:speed><mytracks:gradient>0.06913118900755616</mytracks:gradient><mytracks:length>0.004165269293790773</mytracks:length></extensions></trkpt><trkpt lat="33.59573992266549" lon="130.3576243018678"><ele>7.002899855081668</ele><time>2025-12-30T11:44:42.00000Z</time><extensions><mytracks:speed>2.630718603162027</mytracks:speed><mytracks:length>0.004384531005270044</mytracks:length></extensions></trkpt><trkpt lat="33.59572684779767" lon="130.3575798696558"><ele>7.074244235900332</ele><time>2025-12-30T11:44:47.00000Z</time><extensions><mytracks:speed>3.142770773552876</mytracks:speed><mytracks:gradient>0.01634479823400145</mytracks:gradient><mytracks:length>0.004364959407712327</mytracks:length></extensions></trkpt><trkpt lat="33.59568958087576" lon="130.3574577475197"><ele>7.045910015066261</ele><time>2025-12-30T11:45:00.00000Z</time><extensions><mytracks:speed>3.335902058034659</mytracks:speed><mytracks:length>0.01204631298734738</mytracks:length></extensions></trkpt><trkpt lat="33.59562671183951" lon="130.3571797443319"><ele>6.801699418555515</ele><time>2025-12-30T11:45:27.00000Z</time><extensions><mytracks:speed>3.557472199292216</mytracks:speed><mytracks:length>0.02668104149469162</mytracks:length></extensions></trkpt><trkpt lat="33.59557357581973" lon="130.3569531653794"><ele>6.722079926490415</ele><time>2025-12-30T11:45:49.00000Z</time><extensions><mytracks:speed>3.567611872236248</mytracks:speed><mytracks:length>0.02180207255255485</mytracks:length></extensions></trkpt><trkpt lat="33.59553013231509" lon="130.3567671012288"><ele>6.693007893683909</ele><time>2025-12-30T11:46:07.00000Z</time><extensions><mytracks:speed>3.579551744283286</mytracks:speed><mytracks:length>0.01789775872141643</mytracks:length></extensions></trkpt><trkpt lat="33.59549359674295" lon="130.3566082818639"><ele>6.661232556336986</ele><time>2025-12-30T11:46:22.00000Z</time><extensions><mytracks:speed>3.662563931345858</mytracks:speed><mytracks:length>0.01526068304727441</mytracks:length></extensions></trkpt><trkpt lat="33.59515041567126" lon="130.3551079655794"><ele>6.379247044213116</ele><time>2025-12-30T11:48:43.00000Z</time><extensions><mytracks:speed>3.679303654909465</mytracks:speed><mytracks:length>0.1441060598172874</mytracks:length></extensions></trkpt><trkpt lat="33.59514278109432" lon="130.3550428767668"><ele>6.809274507786717</ele><time>2025-12-30T11:48:49.00000Z</time><extensions><mytracks:speed>3.652628649520764</mytracks:speed><mytracks:gradient>0.07063857372361491</mytracks:gradient><mytracks:length>0.00608771441586794</mytracks:length></extensions></trkpt><trkpt lat="33.59511857990981" lon="130.3549947028472"><ele>6.760861359825358</ele><time>2025-12-30T11:48:54.00000Z</time><extensions><mytracks:speed>3.751350970962286</mytracks:speed><mytracks:length>0.005210209681892064</mytracks:length></extensions></trkpt><trkpt lat="33.59508198107397" lon="130.354970089969"><ele>6.939826380598295</ele><time>2025-12-30T11:48:59.00000Z</time><extensions><mytracks:speed>3.358372361531364</mytracks:speed><mytracks:gradient>0.03836823350277898</mytracks:gradient><mytracks:length>0.004664406057682449</mytracks:length></extensions></trkpt><trkpt lat="33.59504224880627" lon="130.3549745379316"><ele>7.014257250522511</ele><time>2025-12-30T11:49:03.00000Z</time><extensions><mytracks:speed>3.993888607509325</mytracks:speed><mytracks:gradient>0.01677257167509467</mytracks:gradient><mytracks:length>0.004437654008343695</mytracks:length></extensions></trkpt><trkpt lat="33.59500076347406" lon="130.3549692384009"><ele>8.354844581272339</ele><time>2025-12-30T11:49:08.00000Z</time><extensions><mytracks:speed>3.340237715710133</mytracks:speed><mytracks:gradient>0.2889683191109858</mytracks:gradient><mytracks:length>0.004639219049597407</mytracks:length></extensions></trkpt><trkpt lat="33.5949605051236" lon="130.3549542791752"><ele>8.274665698211145</ele><time>2025-12-30T11:49:13.00000Z</time><extensions><mytracks:speed>3.373640923813379</mytracks:speed><mytracks:length>0.004685612394185248</mytracks:length></extensions></trkpt><trkpt lat="33.59493947492592" lon="130.3549336215418"><ele>7.294996018202958</ele><time>2025-12-30T11:49:19.00000Z</time><extensions><mytracks:speed>1.81383570104718</mytracks:speed><mytracks:length>0.0030230595017453</mytracks:length></extensions></trkpt><trkpt lat="33.59492016087368" lon="130.3549008770191"><ele>6.71475945828681</ele><time>2025-12-30T11:49:25.00000Z</time><extensions><mytracks:speed>2.230232013994409</mytracks:speed><mytracks:length>0.003717053356657349</mytracks:length></extensions></trkpt><trkpt lat="33.59489463984838" lon="130.3549100056256"><ele>6.614560002827612</ele><time>2025-12-30T11:49:31.00000Z</time><extensions><mytracks:speed>1.776787083188888</mytracks:speed><mytracks:length>0.002961311805314813</mytracks:length></extensions></trkpt><trkpt lat="33.59483698645244" lon="130.3546120738039"><ele>6.648640748558099</ele><time>2025-12-30T11:50:28.00000Z</time><extensions><mytracks:speed>1.789265397783357</mytracks:speed><mytracks:gradient>0.001202989871746141</mytracks:gradient><mytracks:length>0.02833003546490315</mytracks:length></extensions></trkpt><trkpt lat="33.59459143611999" lon="130.3532551638992"><ele>7.138288616202772</ele><time>2025-12-30T11:54:38.00000Z</time><extensions><mytracks:speed>1.852010760124948</mytracks:speed><mytracks:gradient>0.003807175123327892</mytracks:gradient><mytracks:length>0.1286118583420103</mytracks:length></extensions></trkpt><trkpt lat="33.5945882460701" lon="130.3532262444701"><ele>6.428455504406351</ele><time>2025-12-30T11:54:43.00000Z</time><extensions><mytracks:speed>1.947772495512763</mytracks:speed><mytracks:length>0.00270523957710106</mytracks:length></extensions></trkpt><trkpt lat="33.5945788731974" lon="130.3531796380275"><ele>5.294721699155967</ele><time>2025-12-30T11:54:49.00000Z</time><extensions><mytracks:speed>2.664419644661981</mytracks:speed><mytracks:length>0.004440699407769968</mytracks:length></extensions></trkpt><trkpt lat="33.5945761835844" lon="130.3531221563095"><ele>5.527497903459845</ele><time>2025-12-30T11:54:53.00000Z</time><extensions><mytracks:speed>4.799211714924659</mytracks:speed><mytracks:gradient>0.04365270721897693</mytracks:gradient><mytracks:length>0.005332457461027398</mytracks:length></extensions></trkpt><trkpt lat="33.59456910566733" lon="130.3530764439677"><ele>5.625463313471639</ele><time>2025-12-30T11:54:59.00000Z</time><extensions><mytracks:speed>2.583426523347945</mytracks:speed><mytracks:gradient>0.0227524357576473</mytracks:gradient><mytracks:length>0.004305710872246575</mytracks:length></extensions></trkpt><trkpt lat="33.59455777556487" lon="130.3530376920255"><ele>5.737241889230349</ele><time>2025-12-30T11:55:04.00000Z</time><extensions><mytracks:speed>2.739258290402015</mytracks:speed><mytracks:gradient>0.02938042565327418</mytracks:gradient><mytracks:length>0.003804525403336132</mytracks:length></extensions></trkpt><trkpt lat="33.59455427997963" lon="130.3529777234755"><ele>6.158194091988134</ele><time>2025-12-30T11:55:08.00000Z</time><extensions><mytracks:speed>5.011288993145958</mytracks:speed><mytracks:gradient>0.07560070532754692</mytracks:gradient><mytracks:length>0.005568098881273287</mytracks:length></extensions></trkpt><trkpt lat="33.59455194704249" lon="130.3529283919017"><ele>6.451800133444627</ele><time>2025-12-30T11:55:13.00000Z</time><extensions><mytracks:speed>3.294464401741077</mytracks:speed><mytracks:gradient>0.06416713737655048</mytracks:gradient><mytracks:length>0.004575645002418163</mytracks:length></extensions></trkpt><trkpt lat="33.59454201935355" lon="130.3528772847789"><ele>7.049943477146792</ele><time>2025-12-30T11:55:18.00000Z</time><extensions><mytracks:speed>3.500068611993221</mytracks:speed><mytracks:gradient>0.1230442186161329</mytracks:gradient><mytracks:length>0.004861206405546141</mytracks:length></extensions></trkpt><trkpt lat="33.59451467275828" lon="130.352366871714"><ele>6.53330783704405</ele><time>2025-12-30T11:56:07.00000Z</time><extensions><mytracks:speed>3.480493192112462</mytracks:speed><mytracks:length>0.0473733795593085</mytracks:length></extensions></trkpt><trkpt lat="33.59449223391801" lon="130.3519494227512"><ele>6.064010773448877</ele><time>2025-12-30T11:56:46.00000Z</time><extensions><mytracks:speed>3.576515351226291</mytracks:speed><mytracks:length>0.03874558297161815</mytracks:length></extensions></trkpt><trkpt lat="33.59435422101171" lon="130.3494382158738"><ele>3.600611037574708</ele><time>2025-12-30T12:00:44.00000Z</time><extensions><mytracks:speed>3.525885717892723</mytracks:speed><mytracks:length>0.2331002224606855</mytracks:length></extensions></trkpt><trkpt lat="33.59434560061119" lon="130.3491707964614"><ele>3.550666493152359</ele><time>2025-12-30T12:01:08.00000Z</time><extensions><mytracks:speed>3.718107948224556</mytracks:speed><mytracks:length>0.02478738632149704</mytracks:length></extensions></trkpt><trkpt lat="33.59433117367173" lon="130.3486655141391"><ele>3.857359340414405</ele><time>2025-12-30T12:01:53.00000Z</time><extensions><mytracks:speed>3.746242609814113</mytracks:speed><mytracks:gradient>0.006549342991478352</mytracks:gradient><mytracks:length>0.04682803262267641</mytracks:length></extensions></trkpt><trkpt lat="33.59433514101288" lon="130.348604927878"><ele>3.823311798746408</ele><time>2025-12-30T12:01:59.00000Z</time><extensions><mytracks:speed>3.377082208976622</mytracks:speed><mytracks:length>0.005628470348294371</mytracks:length></extensions></trkpt><trkpt lat="33.59434151232114" lon="130.3485443944783"><ele>3.728464526989697</ele><time>2025-12-30T12:02:04.00000Z</time><extensions><mytracks:speed>4.068607453946754</mytracks:speed><mytracks:length>0.005650843686037158</mytracks:length></extensions></trkpt><trkpt lat="33.59434343777869" lon="130.3484748197133"><ele>4.135156096100652</ele><time>2025-12-30T12:02:09.00000Z</time><extensions><mytracks:speed>4.64250031152216</mytracks:speed><mytracks:gradient>0.06307332474122763</mytracks:gradient><mytracks:length>0.006447917099336334</mytracks:length></extensions></trkpt><trkpt lat="33.59434548921253" lon="130.348412846385"><ele>4.48017083033941</ele><time>2025-12-30T12:02:15.00000Z</time><extensions><mytracks:speed>3.446975036422061</mytracks:speed><mytracks:gradient>0.06005521895456735</mytracks:gradient><mytracks:length>0.005744958394036768</mytracks:length></extensions></trkpt><trkpt lat="33.59434473060526" lon="130.3483543355914"><ele>4.18420812732394</ele><time>2025-12-30T12:02:20.00000Z</time><extensions><mytracks:speed>3.902135935506355</mytracks:speed><mytracks:length>0.005419633243758827</mytracks:length></extensions></trkpt><trkpt lat="33.59434064056166" lon="130.3482933187309"><ele>4.175345100539952</ele><time>2025-12-30T12:02:24.00000Z</time><extensions><mytracks:speed>5.102955509585698</mytracks:speed><mytracks:length>0.005669950566206331</mytracks:length></extensions></trkpt><trkpt lat="33.5943384319928" lon="130.3482359623858"><ele>3.96478574175344</ele><time>2025-12-30T12:02:30.00000Z</time><extensions><mytracks:speed>3.190843013440912</mytracks:speed><mytracks:length>0.005318071689068186</mytracks:length></extensions></trkpt><trkpt lat="33.59434383118664" lon="130.348175767569"><ele>4.373455072270988</ele><time>2025-12-30T12:02:35.00000Z</time><extensions><mytracks:speed>4.03748292792219</mytracks:speed><mytracks:gradient>0.07287756337933556</mytracks:gradient><mytracks:length>0.005607615177669709</mytracks:length></extensions></trkpt><trkpt lat="33.59433720579867" lon="130.3481182370598"><ele>4.292560006354063</ele><time>2025-12-30T12:02:40.00000Z</time><extensions><mytracks:speed>3.87329314328184</mytracks:speed><mytracks:length>0.005379573810113667</mytracks:length></extensions></trkpt><trkpt lat="33.59433660609048" lon="130.3480609284788"><ele>4.445114417305571</ele><time>2025-12-30T12:02:44.00000Z</time><extensions><mytracks:speed>4.777868227957785</mytracks:speed><mytracks:gradient>0.02873644966869315</mytracks:gradient><mytracks:length>0.00530874247550865</mytracks:length></extensions></trkpt><trkpt lat="33.59433683511009" lon="130.3480059396974"><ele>4.45273166136298</ele><time>2025-12-30T12:02:50.00000Z</time><extensions><mytracks:speed>3.05579603467812</mytracks:speed><mytracks:gradient>0.001495632032563709</mytracks:gradient><mytracks:length>0.0050929933911302</mytracks:length></extensions></trkpt><trkpt lat="33.59433110459419" lon="130.347951542104"><ele>4.272782673725933</ele><time>2025-12-30T12:02:54.00000Z</time><extensions><mytracks:speed>4.570934962404413</mytracks:speed><mytracks:length>0.005078816624893793</mytracks:length></extensions></trkpt><trkpt lat="33.59432911795389" lon="130.3476421493954"><ele>4.412951237499187</ele><time>2025-12-30T12:03:21.00000Z</time><extensions><mytracks:speed>3.821009136071691</mytracks:speed><mytracks:gradient>0.004891153402383073</mytracks:gradient><mytracks:length>0.02865756852053768</mytracks:length></extensions></trkpt><trkpt lat="33.59419253673019" lon="130.3473956958265"><ele>4.223526521171245</ele><time>2025-12-30T12:03:56.00000Z</time><extensions><mytracks:speed>2.820126772171371</mytracks:speed><mytracks:length>0.02741789917388833</mytracks:length></extensions></trkpt><trkpt lat="33.59332061654892" lon="130.345834717187"><ele>3.012122854590416</ele><time>2025-12-30T12:07:36.00000Z</time><extensions><mytracks:speed>2.848596488886293</mytracks:speed><mytracks:length>0.1740808965430513</mytracks:length></extensions></trkpt><trkpt lat="33.59317507112188" lon="130.3457948118993"><ele>3.296749818318276</ele><time>2025-12-30T12:07:51.00000Z</time><extensions><mytracks:speed>3.984091411609442</mytracks:speed><mytracks:gradient>0.01714580922908376</mytracks:gradient><mytracks:length>0.01660038088170601</mytracks:length></extensions></trkpt><trkpt lat="33.59308036977785" lon="130.3457681771571"><ele>3.442253569554312</ele><time>2025-12-30T12:08:00.00000Z</time><extensions><mytracks:speed>4.326383916069405</mytracks:speed><mytracks:gradient>0.01345268973431544</mytracks:gradient><mytracks:length>0.01081595979017351</mytracks:length></extensions></trkpt><trkpt lat="33.5930080619388" lon="130.3457491087436"><ele>3.586037338029822</ele><time>2025-12-30T12:08:07.00000Z</time><extensions><mytracks:speed>4.233623380956198</mytracks:speed><mytracks:gradient>0.01746634771664972</mytracks:gradient><mytracks:length>0.008232045462970385</mytracks:length></extensions></trkpt><trkpt lat="33.5926985975535" lon="130.3456794204696"><ele>3.798393341712654</ele><time>2025-12-30T12:08:37.00000Z</time><extensions><mytracks:speed>4.201326188923462</mytracks:speed><mytracks:gradient>0.006065399184934384</mytracks:gradient><mytracks:length>0.03501105157436218</mytracks:length></extensions></trkpt><trkpt lat="33.59265576918028" lon="130.3456700687454"><ele>3.404162328126973</ele><time>2025-12-30T12:08:41.00000Z</time><extensions><mytracks:speed>4.355854525673402</mytracks:speed><mytracks:length>0.004839838361859335</mytracks:length></extensions></trkpt><trkpt lat="33.59260533220251" lon="130.3456508848549"><ele>3.411779781364756</ele><time>2025-12-30T12:08:47.00000Z</time><extensions><mytracks:speed>3.529755148699998</mytracks:speed><mytracks:gradient>0.001294841072575002</mytracks:gradient><mytracks:length>0.00588292524783333</mytracks:length></extensions></trkpt><trkpt lat="33.5925481110708" lon="130.3456329068158"><ele>3.972469149177616</ele><time>2025-12-30T12:08:51.00000Z</time><extensions><mytracks:speed>5.920195933053089</mytracks:speed><mytracks:gradient>0.0852371165984936</mytracks:gradient><mytracks:length>0.006577995481170098</mytracks:length></extensions></trkpt><trkpt lat="33.59249714093297" lon="130.3456218422227"><ele>3.429920793789288</ele><time>2025-12-30T12:08:57.00000Z</time><extensions><mytracks:speed>3.455436190656715</mytracks:speed><mytracks:length>0.005759060317761192</mytracks:length></extensions></trkpt><trkpt lat="33.59244383635895" lon="130.3456061931691"><ele>2.709425617241394</ele><time>2025-12-30T12:09:01.00000Z</time><extensions><mytracks:speed>5.492251089524498</mytracks:speed><mytracks:length>0.006102501210582776</mytracks:length></extensions></trkpt><trkpt lat="33.59239165022806" lon="130.3455911920234"><ele>2.762899394548372</ele><time>2025-12-30T12:09:07.00000Z</time><extensions><mytracks:speed>3.579501387283154</mytracks:speed><mytracks:gradient>0.008963333971086587</mytracks:gradient><mytracks:length>0.005965835645471925</mytracks:length></extensions></trkpt><trkpt lat="33.59234515598969" lon="130.3455813429879"><ele>2.880250520219124</ele><time>2025-12-30T12:09:11.00000Z</time><extensions><mytracks:speed>4.724860251597113</mytracks:speed><mytracks:gradient>0.02235325649430091</mytracks:gradient><mytracks:length>0.005249844723996793</mytracks:length></extensions></trkpt><trkpt lat="33.59229304949931" lon="130.345563465254"><ele>3.45041092384829</ele><time>2025-12-30T12:09:16.00000Z</time><extensions><mytracks:speed>4.33869226884583</mytracks:speed><mytracks:gradient>0.09461733286795281</mytracks:gradient><mytracks:length>0.006025961484508098</mytracks:length></extensions></trkpt><trkpt lat="33.5922409718095" lon="130.3455460089184"><ele>4.136128156995353</ele><time>2025-12-30T12:09:21.00000Z</time><extensions><mytracks:speed>4.328449954365643</mytracks:speed><mytracks:gradient>0.1140630971990161</mytracks:gradient><mytracks:length>0.00601173604773006</mytracks:length></extensions></trkpt><trkpt lat="33.5921904237393" lon="130.3455356850255"><ele>4.040744549082224</ele><time>2025-12-30T12:09:27.00000Z</time><extensions><mytracks:speed>3.420991848554881</mytracks:speed><mytracks:length>0.005701653080924803</mytracks:length></extensions></trkpt><trkpt lat="33.59214244900915" lon="130.3455338457388"><ele>3.617238889443746</ele><time>2025-12-30T12:09:31.00000Z</time><extensions><mytracks:speed>4.803772981642405</mytracks:speed><mytracks:length>0.005337525535158229</mytracks:length></extensions></trkpt><trkpt lat="33.59208508137668" lon="130.3455212410406"><ele>4.724823895443517</ele><time>2025-12-30T12:09:36.00000Z</time><extensions><mytracks:speed>4.669593918482774</mytracks:speed><mytracks:gradient>0.170777420529737</mytracks:gradient><mytracks:length>0.006485547109003854</mytracks:length></extensions></trkpt><trkpt lat="33.59202914295966" lon="130.3455113247881"><ele>3.988488719768372</ele><time>2025-12-30T12:09:42.00000Z</time><extensions><mytracks:speed>3.772361308862336</mytracks:speed><mytracks:length>0.006287268848103893</mytracks:length></extensions></trkpt><trkpt lat="33.59197962581217" lon="130.3455019838349"><ele>4.35001215877813</ele><time>2025-12-30T12:09:47.00000Z</time><extensions><mytracks:speed>4.012525919452798</mytracks:speed><mytracks:gradient>0.06487107655183022</mytracks:gradient><mytracks:length>0.005572952665906664</mytracks:length></extensions></trkpt><trkpt lat="33.5919289606151" lon="130.3454941676639"><ele>4.241739295085318</ele><time>2025-12-30T12:09:51.00000Z</time><extensions><mytracks:speed>5.112245962151462</mytracks:speed><mytracks:length>0.005680273291279402</mytracks:length></extensions></trkpt><trkpt lat="33.59187726019658" lon="130.3454897114871"><ele>4.138392575436297</ele><time>2025-12-30T12:09:57.00000Z</time><extensions><mytracks:speed>3.458251975063119</mytracks:speed><mytracks:length>0.005763753291771865</mytracks:length></extensions></trkpt><trkpt lat="33.59182314502944" lon="130.3454821326372"><ele>5.298150796517251</ele><time>2025-12-30T12:10:02.00000Z</time><extensions><mytracks:speed>4.362854469413635</mytracks:speed><mytracks:gradient>0.1913944013105057</mytracks:gradient><mytracks:length>0.006059520096407827</mytracks:length></extensions></trkpt><trkpt lat="33.59177334092808" lon="130.3454818915347"><ele>5.115701605857774</ele><time>2025-12-30T12:10:06.00000Z</time><extensions><mytracks:speed>4.984265886783426</mytracks:speed><mytracks:length>0.00553807320753714</mytracks:length></extensions></trkpt><trkpt lat="33.59170966878499" lon="130.345465113156"><ele>6.933220986117602</ele><time>2025-12-30T12:10:12.00000Z</time><extensions><mytracks:speed>4.348492644013938</mytracks:speed><mytracks:gradient>0.2507792279830752</mytracks:gradient><mytracks:length>0.007247487740023231</mytracks:length></extensions></trkpt><trkpt lat="33.59165700446751" lon="130.3454909761051"><ele>5.961275683550423</ele><time>2025-12-30T12:10:16.00000Z</time><extensions><mytracks:speed>5.693910204463083</mytracks:speed><mytracks:length>0.006326566893847869</mytracks:length></extensions></trkpt><trkpt lat="33.59163850334902" lon="130.3455423042669"><ele>5.678451112770026</ele><time>2025-12-30T12:10:22.00000Z</time><extensions><mytracks:speed>3.107909654166732</mytracks:speed><mytracks:length>0.005179849423611219</mytracks:length></extensions></trkpt><trkpt lat="33.59162617872321" lon="130.3456559691252"><ele>5.599468344072022</ele><time>2025-12-30T12:10:28.00000Z</time><extensions><mytracks:speed>6.369981636932676</mytracks:speed><mytracks:length>0.01061663606155446</mytracks:length></extensions></trkpt><trkpt lat="33.59160748945442" lon="130.3457304378647"><ele>6.584392681069901</ele><time>2025-12-30T12:10:34.00000Z</time><extensions><mytracks:speed>4.321923574867792</mytracks:speed><mytracks:gradient>0.1367341629165214</mytracks:gradient><mytracks:length>0.007203205958112986</mytracks:length></extensions></trkpt><trkpt lat="33.59157131647729" lon="130.3457920400155"><ele>7.811025666904146</ele><time>2025-12-30T12:10:39.00000Z</time><extensions><mytracks:speed>5.026184181836559</mytracks:speed><mytracks:gradient>0.1757149594700975</mytracks:gradient><mytracks:length>0.006980811363661888</mytracks:length></extensions></trkpt><trkpt lat="33.59152004385757" lon="130.3457939299872"><ele>8.699277749592705</ele><time>2025-12-30T12:10:43.00000Z</time><extensions><mytracks:speed>5.133621299820564</mytracks:speed><mytracks:gradient>0.1557237723101323</mytracks:gradient><mytracks:length>0.005704023666467293</mytracks:length></extensions></trkpt><trkpt lat="33.59148036084789" lon="130.3458221183516"><ele>8.939729226744708</ele><time>2025-12-30T12:10:48.00000Z</time><extensions><mytracks:speed>3.691084384918312</mytracks:speed><mytracks:gradient>0.0469035777824066</mytracks:gradient><mytracks:length>0.005126506090164322</mytracks:length></extensions></trkpt><trkpt lat="33.59143693687246" lon="130.3458925261289"><ele>9.406343805883544</ele><time>2025-12-30T12:10:53.00000Z</time><extensions><mytracks:speed>5.841718111255761</mytracks:speed><mytracks:gradient>0.05751090528189526</mytracks:gradient><mytracks:length>0.008113497376744112</mytracks:length></extensions></trkpt><trkpt lat="33.59137169133326" lon="130.3459016219223"><ele>8.89793312359544</ele><time>2025-12-30T12:10:58.00000Z</time><extensions><mytracks:speed>5.257883981400091</mytracks:speed><mytracks:length>0.007302616640833461</mytracks:length></extensions></trkpt><trkpt lat="33.59131782109999" lon="130.3458843173139"><ele>9.318693280211903</ele><time>2025-12-30T12:11:03.00000Z</time><extensions><mytracks:speed>4.464477512854819</mytracks:speed><mytracks:gradient>0.06785728271484413</mytracks:gradient><mytracks:length>0.00620066321229836</mytracks:length></extensions></trkpt><trkpt lat="33.59126035469273" lon="130.3458660501531"><ele>8.044651487291508</ele><time>2025-12-30T12:11:09.00000Z</time><extensions><mytracks:speed>3.96566001177007</mytracks:speed><mytracks:length>0.006609433352950117</mytracks:length></extensions></trkpt><trkpt lat="33.5912037470774" lon="130.3458467059133"><ele>9.420238859196488</ele><time>2025-12-30T12:11:14.00000Z</time><extensions><mytracks:speed>4.71192566284931</mytracks:speed><mytracks:gradient>0.210194934860809</mytracks:gradient><mytracks:length>0.006544341198401819</mytracks:length></extensions></trkpt><trkpt lat="33.59115741054345" lon="130.3458418730481"><ele>9.393639894546435</ele><time>2025-12-30T12:11:19.00000Z</time><extensions><mytracks:speed>3.72322247385242</mytracks:speed><mytracks:length>0.005171142324795028</mytracks:length></extensions></trkpt><trkpt lat="33.59109758099401" lon="130.3458453315703"><ele>8.539276753504664</ele><time>2025-12-30T12:11:24.00000Z</time><extensions><mytracks:speed>4.795468238826224</mytracks:speed><mytracks:length>0.006660372553925311</mytracks:length></extensions></trkpt><trkpt lat="33.59106530759887" lon="130.345912390635"><ele>8.200572399459084</ele><time>2025-12-30T12:11:29.00000Z</time><extensions><mytracks:speed>5.164189810863122</mytracks:speed><mytracks:length>0.007172485848421003</mytracks:length></extensions></trkpt><trkpt lat="33.59105650322533" lon="130.3460004471075"><ele>7.313645100076605</ele><time>2025-12-30T12:11:34.00000Z</time><extensions><mytracks:speed>5.914051820883111</mytracks:speed><mytracks:length>0.008213960862337654</mytracks:length></extensions></trkpt><trkpt lat="33.59104822150043" lon="130.3460768376622"><ele>7.119021821300569</ele><time>2025-12-30T12:11:38.00000Z</time><extensions><mytracks:speed>6.421220318928692</mytracks:speed><mytracks:length>0.007134689243254102</mytracks:length></extensions></trkpt><trkpt lat="33.59103713734157" lon="130.3461574680463"><ele>6.783975443297313</ele><time>2025-12-30T12:11:43.00000Z</time><extensions><mytracks:speed>5.449872222766028</mytracks:speed><mytracks:length>0.007569266976063927</mytracks:length></extensions></trkpt><trkpt lat="33.59104785054969" lon="130.3462250739211"><ele>7.491793618841569</ele><time>2025-12-30T12:11:48.00000Z</time><extensions><mytracks:speed>4.589360442177479</mytracks:speed><mytracks:gradient>0.1110457748553009</mytracks:gradient><mytracks:length>0.006374111725246497</mytracks:length></extensions></trkpt><trkpt lat="33.59105922498107" lon="130.346289615467"><ele>7.4429444281337</ele><time>2025-12-30T12:11:54.00000Z</time><extensions><mytracks:speed>3.666371217406485</mytracks:speed><mytracks:length>0.006110618695677476</mytracks:length></extensions></trkpt><trkpt lat="33.59105401386154" lon="130.3463506496859"><ele>6.956533437558867</ele><time>2025-12-30T12:11:59.00000Z</time><extensions><mytracks:speed>4.092080934529077</mytracks:speed><mytracks:length>0.005683445742401498</mytracks:length></extensions></trkpt><trkpt lat="33.59103957798391" lon="130.3464156094094"><ele>6.575387056241174</ele><time>2025-12-30T12:12:03.00000Z</time><extensions><mytracks:speed>5.604745543133652</mytracks:speed><mytracks:length>0.00622749504792628</mytracks:length></extensions></trkpt><trkpt lat="33.59102858011597" lon="130.3464790613085"><ele>6.552415589834317</ele><time>2025-12-30T12:12:08.00000Z</time><extensions><mytracks:speed>4.322509100670883</mytracks:speed><mytracks:length>0.006003484862042894</mytracks:length></extensions></trkpt><trkpt lat="33.59103770577239" lon="130.3465434151176"><ele>6.450612799675557</ele><time>2025-12-30T12:12:13.00000Z</time><extensions><mytracks:speed>4.353205682513354</mytracks:speed><mytracks:length>0.006046119003490769</mytracks:length></extensions></trkpt><trkpt lat="33.59105065908614" lon="130.346599417874"><ele>6.279791049516681</ele><time>2025-12-30T12:12:19.00000Z</time><extensions><mytracks:speed>3.229251756043465</mytracks:speed><mytracks:length>0.005382086260072441</mytracks:length></extensions></trkpt><trkpt lat="33.59104257628299" lon="130.3466569368655"><ele>6.659047679040254</ele><time>2025-12-30T12:12:23.00000Z</time><extensions><mytracks:speed>4.863430705093148</mytracks:speed><mytracks:gradient>0.07018316642483728</mytracks:gradient><mytracks:length>0.005403811894547943</mytracks:length></extensions></trkpt><trkpt lat="33.59103548935892" lon="130.3467256635663"><ele>6.81936121370043</ele><time>2025-12-30T12:12:29.00000Z</time><extensions><mytracks:speed>3.8485697250468</mytracks:speed><mytracks:gradient>0.02499321245763215</mytracks:gradient><mytracks:length>0.006414282875078001</mytracks:length></extensions></trkpt><trkpt lat="33.59101268916255" lon="130.3468039096954"><ele>6.168495448998743</ele><time>2025-12-30T12:12:36.00000Z</time><extensions><mytracks:speed>3.94870103103871</mytracks:speed><mytracks:length>0.007678029782575269</mytracks:length></extensions></trkpt><trkpt lat="33.59100591710699" lon="130.3468726081082"><ele>5.812260244423124</ele><time>2025-12-30T12:12:42.00000Z</time><extensions><mytracks:speed>3.844352113122207</mytracks:speed><mytracks:length>0.006407253521870346</mytracks:length></extensions></trkpt><trkpt lat="33.59097151327035" lon="130.3469238703775"><ele>5.676262562483998</ele><time>2025-12-30T12:12:47.00000Z</time><extensions><mytracks:speed>4.390077536273645</mytracks:speed><mytracks:length>0.006097329911491174</mytracks:length></extensions></trkpt><trkpt lat="33.59092863919492" lon="130.3469519915925"><ele>4.92687006778004</ele><time>2025-12-30T12:12:52.00000Z</time><extensions><mytracks:speed>3.910508344073873</mytracks:speed><mytracks:length>0.00543126158899149</mytracks:length></extensions></trkpt><trkpt lat="33.59086427253978" lon="130.3469805458612"><ele>5.233489992921198</ele><time>2025-12-30T12:12:57.00000Z</time><extensions><mytracks:speed>5.493420660289969</mytracks:speed><mytracks:gradient>0.04018740958570258</mytracks:gradient><mytracks:length>0.007629750917069401</mytracks:length></extensions></trkpt><trkpt lat="33.59079907949389" lon="130.3469952254309"><ele>5.91449355042512</ele><time>2025-12-30T12:13:02.00000Z</time><extensions><mytracks:speed>5.310492866582623</mytracks:speed><mytracks:gradient>0.0923308954030011</mytracks:gradient><mytracks:length>0.00737568453692031</mytracks:length></extensions></trkpt><trkpt lat="33.59073630675062" lon="130.3469923308795"><ele>5.514835598169029</ele><time>2025-12-30T12:13:07.00000Z</time><extensions><mytracks:speed>5.029901086897572</mytracks:speed><mytracks:length>0.006985973731802183</mytracks:length></extensions></trkpt><trkpt lat="33.59067207815068" lon="130.3469830964891"><ele>5.244449010802867</ele><time>2025-12-30T12:13:12.00000Z</time><extensions><mytracks:speed>5.178645233991204</mytracks:speed><mytracks:length>0.007192562824987782</mytracks:length></extensions></trkpt><trkpt lat="33.59061152424359" lon="130.346975413866"><ele>5.013131746824337</ele><time>2025-12-30T12:13:17.00000Z</time><extensions><mytracks:speed>4.874705598422564</mytracks:speed><mytracks:length>0.006770424442253562</mytracks:length></extensions></trkpt><trkpt lat="33.59055887474252" lon="130.3469684610613"><ele>4.841729329791177</ele><time>2025-12-30T12:13:22.00000Z</time><extensions><mytracks:speed>4.240116076748855</mytracks:speed><mytracks:length>0.005889050106595631</mytracks:length></extensions></trkpt><trkpt lat="33.59050954559714" lon="130.3469566206335"><ele>5.161879061652257</ele><time>2025-12-30T12:13:27.00000Z</time><extensions><mytracks:speed>4.027054629161015</mytracks:speed><mytracks:gradient>0.0572398013353997</mytracks:gradient><mytracks:length>0.005593131429390299</mytracks:length></extensions></trkpt><trkpt lat="33.59047208667234" lon="130.3469579432001"><ele>5.339278424925033</ele><time>2025-12-30T12:13:32.00000Z</time><extensions><mytracks:speed>3.00055140598986</mytracks:speed><mytracks:gradient>0.04256802309782863</mytracks:gradient><mytracks:length>0.00416743250831925</mytracks:length></extensions></trkpt><trkpt lat="33.59042783864152" lon="130.3469539495227"><ele>5.228300513614323</ele><time>2025-12-30T12:13:37.00000Z</time><extensions><mytracks:speed>3.552405275538634</mytracks:speed><mytracks:length>0.004933896216025881</mytracks:length></extensions></trkpt><trkpt lat="33.59037975428083" lon="130.3469498784762"><ele>5.359622741405887</ele><time>2025-12-30T12:13:42.00000Z</time><extensions><mytracks:speed>3.858790902744816</mytracks:speed><mytracks:gradient>0.02450301309217593</mytracks:gradient><mytracks:length>0.0053594318093678</mytracks:length></extensions></trkpt><trkpt lat="33.59033132052979" lon="130.3469387794599"><ele>5.948034038229139</ele><time>2025-12-30T12:13:47.00000Z</time><extensions><mytracks:speed>3.947964467118127</mytracks:speed><mytracks:gradient>0.1073100169065086</mytracks:gradient><mytracks:length>0.005483283982108509</mytracks:length></extensions></trkpt><trkpt lat="33.59029027520769" lon="130.3469333953764"><ele>5.454231653590582</ele><time>2025-12-30T12:13:52.00000Z</time><extensions><mytracks:speed>3.306497075770144</mytracks:speed><mytracks:length>0.004592357049680755</mytracks:length></extensions></trkpt><trkpt lat="33.59025138541025" lon="130.3469254165885"><ele>5.068017830675345</ele><time>2025-12-30T12:13:57.00000Z</time><extensions><mytracks:speed>3.159081559445526</mytracks:speed><mytracks:length>0.004387613277007675</mytracks:length></extensions></trkpt><trkpt lat="33.59020968422938" lon="130.34691616564"><ele>5.165113774868208</ele><time>2025-12-30T12:14:02.00000Z</time><extensions><mytracks:speed>3.396415070191561</mytracks:speed><mytracks:gradient>0.0205831968043053</mytracks:gradient><mytracks:length>0.004717243153043835</mytracks:length></extensions></trkpt><trkpt lat="33.59017186627151" lon="130.346910762635"><ele>5.313816037550941</ele><time>2025-12-30T12:14:07.00000Z</time><extensions><mytracks:speed>3.049205907206602</mytracks:speed><mytracks:gradient>0.0351126268247498</mytracks:gradient><mytracks:length>0.004235008204453614</mytracks:length></extensions></trkpt><trkpt lat="33.59012744379395" lon="130.3469091288601"><ele>5.39189678530402</ele><time>2025-12-30T12:14:12.00000Z</time><extensions><mytracks:speed>3.557662259954427</mytracks:speed><mytracks:gradient>0.01580198857407476</mytracks:gradient><mytracks:length>0.004941197583270039</mytracks:length></extensions></trkpt><trkpt lat="33.59008171742197" lon="130.3468979867031"><ele>5.552278359887866</ele><time>2025-12-30T12:14:17.00000Z</time><extensions><mytracks:speed>3.735750175717462</mytracks:speed><mytracks:gradient>0.03091072161381656</mytracks:gradient><mytracks:length>0.005188541910718697</mytracks:length></extensions></trkpt><trkpt lat="33.59006681508223" lon="130.3468946920329"><ele>5.548897274428769</ele><time>2025-12-30T12:14:22.00000Z</time><extensions><mytracks:speed>1.215076874958182</mytracks:speed><mytracks:length>0.001687606770775252</mytracks:length></extensions></trkpt><trkpt lat="33.59005833835528" lon="130.3468955866734"><ele>5.571328191129125</ele><time>2025-12-30T12:14:27.00000Z</time><extensions><mytracks:speed>0.6766642810945235</mytracks:speed><mytracks:gradient>0.02386746349036357</mytracks:gradient><mytracks:length>0.0009398115015201715</mytracks:length></extensions></trkpt><trkpt lat="33.59005791131277" lon="130.3468916740887"><ele>5.539874901391295</ele><time>2025-12-30T12:14:33.00000Z</time><extensions><mytracks:speed>0.2131292153400491</mytracks:speed><mytracks:length>0.0003552153589000818</mytracks:length></extensions></trkpt><trkpt lat="33.59002352151189" lon="130.3468876038446"><ele>5.65487784719603</ele><time>2025-12-30T12:14:38.00000Z</time><extensions><mytracks:speed>2.766413931148674</mytracks:speed><mytracks:gradient>0.02993121168422822</mytracks:gradient><mytracks:length>0.003842241571039825</mytracks:length></extensions></trkpt><trkpt lat="33.58998044430491" lon="130.3468764843975"><ele>5.630090652640134</ele><time>2025-12-30T12:14:43.00000Z</time><extensions><mytracks:speed>3.527989829685469</mytracks:speed><mytracks:length>0.004899985874563151</mytracks:length></extensions></trkpt><trkpt lat="33.58992936652293" lon="130.3468620025374"><ele>6.076463710495427</ele><time>2025-12-30T12:14:49.00000Z</time><extensions><mytracks:speed>3.50160709969129</mytracks:speed><mytracks:gradient>0.07648597546446259</mytracks:gradient><mytracks:length>0.005836011832818817</mytracks:length></extensions></trkpt><trkpt lat="33.58980609552026" lon="130.3468410007548"><ele>5.802264399826527</ele><time>2025-12-30T12:15:04.00000Z</time><extensions><mytracks:speed>3.322629099575757</mytracks:speed><mytracks:length>0.01384428791489899</mytracks:length></extensions></trkpt><trkpt lat="33.58975840140424" lon="130.3468324626859"><ele>6.25588740701648</ele><time>2025-12-30T12:15:09.00000Z</time><extensions><mytracks:speed>3.860001503842126</mytracks:speed><mytracks:gradient>0.08461358495629359</mytracks:gradient><mytracks:length>0.005361113199780731</mytracks:length></extensions></trkpt><trkpt lat="33.5897141961779" lon="130.3468316011831"><ele>5.808587629689452</ele><time>2025-12-30T12:15:14.00000Z</time><extensions><mytracks:speed>3.539228652701237</mytracks:speed><mytracks:length>0.00491559535097394</mytracks:length></extensions></trkpt><trkpt lat="33.58966010185986" lon="130.3468213849754"><ele>6.538961345717808</ele><time>2025-12-30T12:15:19.00000Z</time><extensions><mytracks:speed>4.384753001220004</mytracks:speed><mytracks:gradient>0.1199312881236639</mytracks:gradient><mytracks:length>0.006089934723916672</mytracks:length></extensions></trkpt><trkpt lat="33.58961459186526" lon="130.3468420589919"><ele>6.352278701764603</ele><time>2025-12-30T12:15:24.00000Z</time><extensions><mytracks:speed>3.896144628524897</mytracks:speed><mytracks:length>0.005411311984062357</mytracks:length></extensions></trkpt><trkpt lat="33.58957594527651" lon="130.3468700585502"><ele>5.414780850322074</ele><time>2025-12-30T12:15:29.00000Z</time><extensions><mytracks:speed>3.614338282887746</mytracks:speed><mytracks:length>0.005019914281788536</mytracks:length></extensions></trkpt><trkpt lat="33.58953449412908" lon="130.3468882968534"><ele>5.027921767450889</ele><time>2025-12-30T12:15:34.00000Z</time><extensions><mytracks:speed>3.53460522988788</mytracks:speed><mytracks:length>0.004909173930399834</mytracks:length></extensions></trkpt><trkpt lat="33.58948618014545" lon="130.3469091439117"><ele>6.05159883667378</ele><time>2025-12-30T12:15:39.00000Z</time><extensions><mytracks:speed>4.110876867644219</mytracks:speed><mytracks:gradient>0.1792920375800151</mytracks:gradient><mytracks:length>0.005709551205061414</mytracks:length></extensions></trkpt><trkpt lat="33.58944058474653" lon="130.3469399737712"><ele>6.274910286480738</ele><time>2025-12-30T12:15:44.00000Z</time><extensions><mytracks:speed>4.190237142361299</mytracks:speed><mytracks:gradient>0.03837115618960023</mytracks:gradient><mytracks:length>0.005819773808835138</mytracks:length></extensions></trkpt><trkpt lat="33.58939909436093" lon="130.3469684743083"><ele>6.037392648235403</ele><time>2025-12-30T12:15:48.00000Z</time><extensions><mytracks:speed>4.783976083731166</mytracks:speed><mytracks:length>0.005315528981923517</mytracks:length></extensions></trkpt><trkpt lat="33.58937704906002" lon="130.3470224868743"><ele>5.768259236275158</ele><time>2025-12-30T12:15:53.00000Z</time><extensions><mytracks:speed>4.011943676698597</mytracks:speed><mytracks:length>0.005572143995414718</mytracks:length></extensions></trkpt><trkpt lat="33.58934885653625" lon="130.3470795168141"><ele>5.739868309278228</ele><time>2025-12-30T12:15:58.00000Z</time><extensions><mytracks:speed>4.422946586809721</mytracks:speed><mytracks:length>0.006142981370569056</mytracks:length></extensions></trkpt><trkpt lat="33.58932574019884" lon="130.3471458660445"><ele>5.566638758842442</ele><time>2025-12-30T12:16:04.00000Z</time><extensions><mytracks:speed>3.99703536040467</mytracks:speed><mytracks:length>0.006661725600674451</mytracks:length></extensions></trkpt><trkpt lat="33.58930504647468" lon="130.3472060200312"><ele>5.687436044374456</ele><time>2025-12-30T12:16:09.00000Z</time><extensions><mytracks:speed>4.340307266954562</mytracks:speed><mytracks:gradient>0.02003868395337743</mytracks:gradient><mytracks:length>0.006028204537436892</mytracks:length></extensions></trkpt><trkpt lat="33.58929540508088" lon="130.3472616699031"><ele>5.490651596357312</ele><time>2025-12-30T12:16:14.00000Z</time><extensions><mytracks:speed>3.79099646810364</mytracks:speed><mytracks:length>0.005265272872366167</mytracks:length></extensions></trkpt><trkpt lat="33.58929091258018" lon="130.3473168736576"><ele>5.546603141564521</ele><time>2025-12-30T12:16:19.00000Z</time><extensions><mytracks:speed>3.699302960992848</mytracks:speed><mytracks:gradient>0.01088991979677674</mytracks:gradient><mytracks:length>0.005137920779156733</mytracks:length></extensions></trkpt><trkpt lat="33.5892893783391" lon="130.3473720483751"><ele>5.685500609161474</ele><time>2025-12-30T12:16:24.00000Z</time><extensions><mytracks:speed>3.681578614861812</mytracks:speed><mytracks:gradient>0.02716393893263639</mytracks:gradient><mytracks:length>0.005113303631752516</mytracks:length></extensions></trkpt><trkpt lat="33.58927267525986" lon="130.3476339571141"><ele>5.463942724280059</ele><time>2025-12-30T12:16:46.00000Z</time><extensions><mytracks:speed>3.981413951696378</mytracks:speed><mytracks:length>0.02433086303814453</mytracks:length></extensions></trkpt><trkpt lat="33.58926827731053" lon="130.347693901136"><ele>5.598864424716237</ele><time>2025-12-30T12:16:50.00000Z</time><extensions><mytracks:speed>5.017112689466836</mytracks:speed><mytracks:gradient>0.02420307015377489</mytracks:gradient><mytracks:length>0.005574569654963151</mytracks:length></extensions></trkpt><trkpt lat="33.58926728493065" lon="130.3477479697505"><ele>6.43076883853608</ele><time>2025-12-30T12:16:55.00000Z</time><extensions><mytracks:speed>3.607221526477494</mytracks:speed><mytracks:gradient>0.1660477942798239</mytracks:gradient><mytracks:length>0.005010029897885408</mytracks:length></extensions></trkpt><trkpt lat="33.58926073789936" lon="130.3478035907794"><ele>6.775479154180574</ele><time>2025-12-30T12:17:00.00000Z</time><extensions><mytracks:speed>3.746365784745312</mytracks:speed><mytracks:gradient>0.06624858370067252</mytracks:gradient><mytracks:length>0.005203285812146267</mytracks:length></extensions></trkpt><trkpt lat="33.58925312524975" lon="130.3478660554048"><ele>6.371400666362781</ele><time>2025-12-30T12:17:05.00000Z</time><extensions><mytracks:speed>4.210259626585533</mytracks:speed><mytracks:length>0.005847582814702129</mytracks:length></extensions></trkpt><trkpt lat="33.58925346547782" lon="130.3479314259745"><ele>6.392197863532403</ele><time>2025-12-30T12:17:10.00000Z</time><extensions><mytracks:speed>4.359640579865563</mytracks:speed><mytracks:gradient>0.003434682673448629</mytracks:gradient><mytracks:length>0.006055056360924392</mytracks:length></extensions></trkpt><trkpt lat="33.58927364200812" lon="130.3479899228022"><ele>6.480384392171676</ele><time>2025-12-30T12:17:15.00000Z</time><extensions><mytracks:speed>4.221895557460906</mytracks:speed><mytracks:gradient>0.01503928739025056</mytracks:gradient><mytracks:length>0.005863743829806813</mytracks:length></extensions></trkpt><trkpt lat="33.58927890651611" lon="130.3480184096298"><ele>6.790578357503956</ele><time>2025-12-30T12:17:20.00000Z</time><extensions><mytracks:speed>1.94417106408876</mytracks:speed><mytracks:gradient>0.1148765451582943</mytracks:gradient><mytracks:length>0.002700237589012166</mytracks:length></extensions></trkpt><trkpt lat="33.58927607441205" lon="130.3480977610613"><ele>6.59342665784061</ele><time>2025-12-30T12:17:34.00000Z</time><extensions><mytracks:speed>1.891570466634357</mytracks:speed><mytracks:length>0.007356107370244721</mytracks:length></extensions></trkpt><trkpt lat="33.5892821612914" lon="130.348175456193"><ele>6.577783765905743</ele><time>2025-12-30T12:17:38.00000Z</time><extensions><mytracks:speed>6.505368125683751</mytracks:speed><mytracks:length>0.007228186806315279</mytracks:length></extensions></trkpt><trkpt lat="33.58925650097427" lon="130.3482341463321"><ele>6.648318503698774</ele><time>2025-12-30T12:17:43.00000Z</time><extensions><mytracks:speed>4.420833377617516</mytracks:speed><mytracks:gradient>0.01148765557826832</mytracks:gradient><mytracks:length>0.006140046357802106</mytracks:length></extensions></trkpt><trkpt lat="33.58924131904547" lon="130.3482810539123"><ele>6.836859697522954</ele><time>2025-12-30T12:17:48.00000Z</time><extensions><mytracks:speed>3.356980866811786</mytracks:speed><mytracks:gradient>0.04043802003624</mytracks:gradient><mytracks:length>0.004662473426127482</mytracks:length></extensions></trkpt><trkpt lat="33.58923826275178" lon="130.348346578896"><ele>7.187146033705243</ele><time>2025-12-30T12:17:53.00000Z</time><extensions><mytracks:speed>4.376754053237152</mytracks:speed><mytracks:gradient>0.05762401976065135</mytracks:gradient><mytracks:length>0.00607882507394049</mytracks:length></extensions></trkpt><trkpt lat="33.58923656978421" lon="130.3484069312891"><ele>7.547376315696781</ele><time>2025-12-30T12:17:58.00000Z</time><extensions><mytracks:speed>4.027634687446942</mytracks:speed><mytracks:gradient>0.06439655608347017</mytracks:gradient><mytracks:length>0.005593937065898531</mytracks:length></extensions></trkpt><trkpt lat="33.58923102952355" lon="130.348457047355"><ele>7.430408214578256</ele><time>2025-12-30T12:18:03.00000Z</time><extensions><mytracks:speed>3.371562918735523</mytracks:speed><mytracks:length>0.004682726276021559</mytracks:length></extensions></trkpt><trkpt lat="33.5892250144088" lon="130.3485172382404"><ele>7.483380506759834</ele><time>2025-12-30T12:18:08.00000Z</time><extensions><mytracks:speed>4.042686989710078</mytracks:speed><mytracks:gradient>0.009434331786708718</mytracks:gradient><mytracks:length>0.005614843041263997</mytracks:length></extensions></trkpt><trkpt lat="33.58922321209945" lon="130.3485807658103"><ele>7.481399193777079</ele><time>2025-12-30T12:18:13.00000Z</time><extensions><mytracks:speed>4.238462902570706</mytracks:speed><mytracks:length>0.005886754031348204</mytracks:length></extensions></trkpt><trkpt lat="33.58920910876048" lon="130.3486344845165"><ele>7.62607622444769</ele><time>2025-12-30T12:18:18.00000Z</time><extensions><mytracks:speed>3.756329541130412</mytracks:speed><mytracks:gradient>0.02773118304510952</mytracks:gradient><mytracks:length>0.005217124362681127</mytracks:length></extensions></trkpt><trkpt lat="33.58920106169927" lon="130.3488713629515"><ele>7.021475998684764</ele><time>2025-12-30T12:18:39.00000Z</time><extensions><mytracks:speed>3.764506991442271</mytracks:speed><mytracks:length>0.02195962411674658</mytracks:length></extensions></trkpt><trkpt lat="33.58920488115903" lon="130.3489355213804"><ele>7.082053071810672</ele><time>2025-12-30T12:18:45.00000Z</time><extensions><mytracks:speed>3.574512532751067</mytracks:speed><mytracks:gradient>0.01016816797885772</mytracks:gradient><mytracks:length>0.005957520887918445</mytracks:length></extensions></trkpt><trkpt lat="33.58920014092096" lon="130.3489902711379"><ele>7.222806491163781</ele><time>2025-12-30T12:18:50.00000Z</time><extensions><mytracks:speed>3.670139192236697</mytracks:speed><mytracks:gradient>0.02761270257776711</mytracks:gradient><mytracks:length>0.005097415544773191</mytracks:length></extensions></trkpt><trkpt lat="33.58919674163129" lon="130.3490446658175"><ele>6.886656756943895</ele><time>2025-12-30T12:18:55.00000Z</time><extensions><mytracks:speed>3.638174298526469</mytracks:speed><mytracks:length>0.00505301985906454</mytracks:length></extensions></trkpt><trkpt lat="33.58920308604878" lon="130.3491091657086"><ele>6.617427344169602</ele><time>2025-12-30T12:19:01.00000Z</time><extensions><mytracks:speed>3.609739154849766</mytracks:speed><mytracks:length>0.00601623192474961</mytracks:length></extensions></trkpt><trkpt lat="33.58919034175319" lon="130.3491683622389"><ele>6.703037672285038</ele><time>2025-12-30T12:19:06.00000Z</time><extensions><mytracks:speed>4.077783913202088</mytracks:speed><mytracks:gradient>0.01511591529986465</mytracks:gradient><mytracks:length>0.005663588768336233</mytracks:length></extensions></trkpt><trkpt lat="33.58918097735638" lon="130.3492269920112"><ele>6.806105417951499</ele><time>2025-12-30T12:19:11.00000Z</time><extensions><mytracks:speed>3.981549726238673</mytracks:speed><mytracks:gradient>0.01863816402714034</mytracks:gradient><mytracks:length>0.00552993017533149</mytracks:length></extensions></trkpt><trkpt lat="33.58917593964294" lon="130.3492813807229"><ele>6.666452272800516</ele><time>2025-12-30T12:19:16.00000Z</time><extensions><mytracks:speed>3.649713911181881</mytracks:speed><mytracks:length>0.005069047098863724</mytracks:length></extensions></trkpt><trkpt lat="33.58917147708176" lon="130.3493356430924"><ele>6.698991613529421</ele><time>2025-12-30T12:19:21.00000Z</time><extensions><mytracks:speed>3.636247469386892</mytracks:speed><mytracks:gradient>0.006442995291726257</mytracks:gradient><mytracks:length>0.005050343707481793</mytracks:length></extensions></trkpt><trkpt lat="33.58916683794183" lon="130.3493895945681"><ele>6.759616463103804</ele><time>2025-12-30T12:19:26.00000Z</time><extensions><mytracks:speed>3.616276785726438</mytracks:speed><mytracks:gradient>0.01207039568039796</mytracks:gradient><mytracks:length>0.005022606646842275</mytracks:length></extensions></trkpt><trkpt lat="33.58916263296481" lon="130.3494489124951"><ele>6.833709210166856</ele><time>2025-12-30T12:19:31.00000Z</time><extensions><mytracks:speed>3.970386206179016</mytracks:speed><mytracks:gradient>0.01343616845191925</mytracks:gradient><mytracks:length>0.005514425286359745</mytracks:length></extensions></trkpt><trkpt lat="33.58915821009037" lon="130.3495074526662"><ele>6.76577891541526</ele><time>2025-12-30T12:19:36.00000Z</time><extensions><mytracks:speed>3.92065080398761</mytracks:speed><mytracks:length>0.005445348338871682</mytracks:length></extensions></trkpt><trkpt lat="33.58914901478195" lon="130.3496791225486"><ele>6.654885286822137</ele><time>2025-12-30T12:19:50.00000Z</time><extensions><mytracks:speed>4.097425092992049</mytracks:speed><mytracks:length>0.0159344309171913</mytracks:length></extensions></trkpt><trkpt lat="33.5891193386863" lon="130.3501313554883"><ele>5.724671450443566</ele><time>2025-12-30T12:20:29.00000Z</time><extensions><mytracks:speed>3.878719484094572</mytracks:speed><mytracks:length>0.0420194610776912</mytracks:length></extensions></trkpt><trkpt lat="33.58912047433272" lon="130.3501876386341"><ele>5.574269036540938</ele><time>2025-12-30T12:20:35.00000Z</time><extensions><mytracks:speed>3.129237931169379</mytracks:speed><mytracks:length>0.005215396551948965</mytracks:length></extensions></trkpt><trkpt lat="33.58912254537634" lon="130.3502451533283"><ele>5.260869992633268</ele><time>2025-12-30T12:20:40.00000Z</time><extensions><mytracks:speed>3.839369371939727</mytracks:speed><mytracks:length>0.005332457461027398</mytracks:length></extensions></trkpt><trkpt lat="33.58911468134549" lon="130.3502991596863"><ele>5.303974491608147</ele><time>2025-12-30T12:20:45.00000Z</time><extensions><mytracks:speed>3.656747969923531</mytracks:speed><mytracks:gradient>0.008487114648637304</mytracks:gradient><mytracks:length>0.005078816624893793</mytracks:length></extensions></trkpt><trkpt lat="33.5891290764548" lon="130.3503582960398"><ele>5.039348226071566</ele><time>2025-12-30T12:20:50.00000Z</time><extensions><mytracks:speed>4.109171699150127</mytracks:speed><mytracks:length>0.005707182915486288</mytracks:length></extensions></trkpt><trkpt lat="33.58913253263038" lon="130.350409544163"><ele>4.99826828445024</ele><time>2025-12-30T12:20:55.00000Z</time><extensions><mytracks:speed>3.429271119990411</mytracks:speed><mytracks:length>0.004762876555542237</mytracks:length></extensions></trkpt><trkpt lat="33.5891282462168" lon="130.3504773802618"><ele>5.352619915335485</ele><time>2025-12-30T12:21:01.00000Z</time><extensions><mytracks:speed>3.78095244116622</mytracks:speed><mytracks:gradient>0.05623212188978708</mytracks:gradient><mytracks:length>0.0063015874019437</mytracks:length></extensions></trkpt><trkpt lat="33.58912951268221" lon="130.3505395511048"><ele>5.245981486036269</ele><time>2025-12-30T12:21:07.00000Z</time><extensions><mytracks:speed>3.456375040338666</mytracks:speed><mytracks:length>0.00576062506723111</mytracks:length></extensions></trkpt><trkpt lat="33.58913548442136" lon="130.3505978895006"><ele>4.858041353304339</ele><time>2025-12-30T12:21:12.00000Z</time><extensions><mytracks:speed>3.919458935650604</mytracks:speed><mytracks:length>0.005443692966181394</mytracks:length></extensions></trkpt><trkpt lat="33.58914162259784" lon="130.3506553731943"><ele>4.912093758521903</ele><time>2025-12-30T12:21:17.00000Z</time><extensions><mytracks:speed>3.864235621001149</mytracks:speed><mytracks:gradient>0.01007126261792577</mytracks:gradient><mytracks:length>0.005366993918057152</mytracks:length></extensions></trkpt><trkpt lat="33.58914740678099" lon="130.3507087455278"><ele>4.98797795967755</ele><time>2025-12-30T12:21:22.00000Z</time><extensions><mytracks:speed>3.588391513199378</mytracks:speed><mytracks:gradient>0.01522593747953449</mytracks:gradient><mytracks:length>0.004983877101665803</mytracks:length></extensions></trkpt><trkpt lat="33.58915182194018" lon="130.3507664258349"><ele>5.078191870249499</ele><time>2025-12-30T12:21:26.00000Z</time><extensions><mytracks:speed>4.827270867409756</mytracks:speed><mytracks:gradient>0.01681954912928296</mytracks:gradient><mytracks:length>0.00536363429712195</mytracks:length></extensions></trkpt><trkpt lat="33.58916207197338" lon="130.3508214458525"><ele>4.854252663263657</ele><time>2025-12-30T12:21:32.00000Z</time><extensions><mytracks:speed>3.132864832878201</mytracks:speed><mytracks:length>0.005221441388130335</mytracks:length></extensions></trkpt><trkpt lat="33.5891672609336" lon="130.350878172104"><ele>4.945191908040873</ele><time>2025-12-30T12:21:36.00000Z</time><extensions><mytracks:speed>4.757196319108006</mytracks:speed><mytracks:gradient>0.01720452863606871</mytracks:gradient><mytracks:length>0.005285773687897784</mytracks:length></extensions></trkpt><trkpt lat="33.58917960248445" lon="130.350930683967"><ele>4.791111702470088</ele><time>2025-12-30T12:21:42.00000Z</time><extensions><mytracks:speed>3.032881903795818</mytracks:speed><mytracks:length>0.005054803172993031</mytracks:length></extensions></trkpt><trkpt lat="33.58919188669561" lon="130.3509814254867"><ele>4.724627304418028</ele><time>2025-12-30T12:21:47.00000Z</time><extensions><mytracks:speed>3.524014628614942</mytracks:speed><mytracks:length>0.004894464761965198</mytracks:length></extensions></trkpt><trkpt lat="33.58919459219945" lon="130.3510360534549"><ele>4.984409641682044</ele><time>2025-12-30T12:21:52.00000Z</time><extensions><mytracks:speed>3.649073778946634</mytracks:speed><mytracks:gradient>0.05125774214520929</mytracks:gradient><mytracks:length>0.00506815802631477</mytracks:length></extensions></trkpt><trkpt lat="33.5891962250598" lon="130.3510707585399"><ele>5.052008060546046</ele><time>2025-12-30T12:21:56.00000Z</time><extensions><mytracks:speed>2.898730826732488</mytracks:speed><mytracks:gradient>0.02098800496291017</mytracks:gradient><mytracks:length>0.003220812029702765</mytracks:length></extensions></trkpt><trkpt lat="33.58919937750306" lon="130.351127582249"><ele>4.927689256319782</ele><time>2025-12-30T12:22:02.00000Z</time><extensions><mytracks:speed>3.165319943074724</mytracks:speed><mytracks:length>0.005275533238457873</mytracks:length></extensions></trkpt><trkpt lat="33.58921010140943" lon="130.3511836311409"><ele>5.274994555160044</ele><time>2025-12-30T12:22:07.00000Z</time><extensions><mytracks:speed>3.835107801514606</mytracks:speed><mytracks:gradient>0.06520281256924033</mytracks:gradient><mytracks:length>0.00532653861321473</mytracks:length></extensions></trkpt><trkpt lat="33.58921570701062" lon="130.3512367359475"><ele>5.055614030201407</ele><time>2025-12-30T12:22:12.00000Z</time><extensions><mytracks:speed>3.569462167178695</mytracks:speed><mytracks:length>0.004957586343303743</mytracks:length></extensions></trkpt><trkpt lat="33.58922634387211" lon="130.3512920040002"><ele>5.082610392185549</ele><time>2025-12-30T12:22:17.00000Z</time><extensions><mytracks:speed>3.782977102832057</mytracks:speed><mytracks:gradient>0.005138117440370085</mytracks:gradient><mytracks:length>0.005254134865044524</mytracks:length></extensions></trkpt><trkpt lat="33.58923565905391" lon="130.3513850388569"><ele>5.15472791709429</ele><time>2025-12-30T12:22:25.00000Z</time><extensions><mytracks:speed>3.905866490192117</mytracks:speed><mytracks:gradient>0.008308754610641378</mytracks:gradient><mytracks:length>0.008679703311538037</mytracks:length></extensions></trkpt><trkpt lat="33.58928580187774" lon="130.3517377174311"><ele>4.882966363802552</ele><time>2025-12-30T12:22:57.00000Z</time><extensions><mytracks:speed>3.728269201426013</mytracks:speed><mytracks:length>0.03314017067934234</mytracks:length></extensions></trkpt><trkpt lat="33.58928984468086" lon="130.3518045610297"><ele>4.934175136913762</ele><time>2025-12-30T12:23:02.00000Z</time><extensions><mytracks:speed>4.469707077155394</mytracks:speed><mytracks:gradient>0.008248933543881337</mytracks:gradient><mytracks:length>0.006207926496049157</mytracks:length></extensions></trkpt><trkpt lat="33.5892952752362" lon="130.3518636282305"><ele>5.150060600781514</ele><time>2025-12-30T12:23:07.00000Z</time><extensions><mytracks:speed>3.962140327690992</mytracks:speed><mytracks:gradient>0.03923069884689461</mytracks:gradient><mytracks:length>0.005502972677348601</mytracks:length></extensions></trkpt><trkpt lat="33.58930129285883" lon="130.3519265272367"><ele>5.58818360637247</ele><time>2025-12-30T12:23:13.00000Z</time><extensions><mytracks:speed>3.518246297884088</mytracks:speed><mytracks:gradient>0.0747172827305095</mytracks:gradient><mytracks:length>0.005863743829806813</mytracks:length></extensions></trkpt><trkpt lat="33.58930981535767" lon="130.3519821837878"><ele>5.851071697727527</ele><time>2025-12-30T12:23:18.00000Z</time><extensions><mytracks:speed>3.774940701511611</mytracks:speed><mytracks:gradient>0.05014103286439636</mytracks:gradient><mytracks:length>0.005242973196543904</mytracks:length></extensions></trkpt><trkpt lat="33.58931838717778" lon="130.3520348626944"><ele>5.663728601955328</ele><time>2025-12-30T12:23:22.00000Z</time><extensions><mytracks:speed>4.474082133888611</mytracks:speed><mytracks:length>0.004971202370987345</mytracks:length></extensions></trkpt><trkpt lat="33.5893331734822" lon="130.3520880953888"><ele>5.755602867476924</ele><time>2025-12-30T12:23:28.00000Z</time><extensions><mytracks:speed>3.11781163002739</mytracks:speed><mytracks:gradient>0.01768052911922492</mytracks:gradient><mytracks:length>0.005196352716712317</mytracks:length></extensions></trkpt><trkpt lat="33.58935163793318" lon="130.3521439553854"><ele>5.907057573943343</ele><time>2025-12-30T12:23:33.00000Z</time><extensions><mytracks:speed>4.008448444140185</mytracks:speed><mytracks:gradient>0.02720438847485598</mytracks:gradient><mytracks:length>0.005567289505750256</mytracks:length></extensions></trkpt><trkpt lat="33.58938036595869" lon="130.3521934181487"><ele>6.128406683803239</ele><time>2025-12-30T12:23:38.00000Z</time><extensions><mytracks:speed>4.021830339875015</mytracks:speed><mytracks:gradient>0.03962657437809226</mytracks:gradient><mytracks:length>0.005585875472048631</mytracks:length></extensions></trkpt><trkpt lat="33.58940803760046" lon="130.3522332191714"><ele>6.138217181052032</ele><time>2025-12-30T12:23:43.00000Z</time><extensions><mytracks:speed>3.457088395575902</mytracks:speed><mytracks:gradient>0.00204321012681377</mytracks:gradient><mytracks:length>0.004801511660522086</mytracks:length></extensions></trkpt><trkpt lat="33.5894544403665" lon="130.352260326963"><ele>5.845219062698177</ele><time>2025-12-30T12:23:47.00000Z</time><extensions><mytracks:speed>5.164104991877268</mytracks:speed><mytracks:length>0.005737894435419187</mytracks:length></extensions></trkpt><trkpt lat="33.58950400639669" lon="130.3522573618201"><ele>5.64255692488994</ele><time>2025-12-30T12:23:53.00000Z</time><extensions><mytracks:speed>3.311105846303251</mytracks:speed><mytracks:length>0.005518509743838751</mytracks:length></extensions></trkpt><trkpt lat="33.58955321742418" lon="130.3522467322034"><ele>5.410361356257028</ele><time>2025-12-30T12:23:57.00000Z</time><extensions><mytracks:speed>5.003999841661336</mytracks:speed><mytracks:length>0.005559999824068152</mytracks:length></extensions></trkpt><trkpt lat="33.58959953131137" lon="130.3522411479419"><ele>5.365951115732982</ele><time>2025-12-30T12:24:02.00000Z</time><extensions><mytracks:speed>3.726358347796554</mytracks:speed><mytracks:length>0.005175497705272991</mytracks:length></extensions></trkpt><trkpt lat="33.58964426402027" lon="130.3522393761613"><ele>5.645982488926713</ele><time>2025-12-30T12:24:08.00000Z</time><extensions><mytracks:speed>2.985983010688347</mytracks:speed><mytracks:gradient>0.05626918281678551</mytracks:gradient><mytracks:length>0.004976638351147244</mytracks:length></extensions></trkpt><trkpt lat="33.5896879422497" lon="130.3522227647957"><ele>5.465209533470326</ele><time>2025-12-30T12:24:12.00000Z</time><extensions><mytracks:speed>4.585286441869636</mytracks:speed><mytracks:length>0.005094762713188484</mytracks:length></extensions></trkpt><trkpt lat="33.58973020292618" lon="130.3522189578701"><ele>5.445919606392091</ele><time>2025-12-30T12:24:18.00000Z</time><extensions><mytracks:speed>2.827478556583269</mytracks:speed><mytracks:length>0.004712464260972115</mytracks:length></extensions></trkpt><trkpt lat="33.58977453811998" lon="130.3522124915376"><ele>5.707101738524937</ele><time>2025-12-30T12:24:22.00000Z</time><extensions><mytracks:speed>4.470001058393799</mytracks:speed><mytracks:gradient>0.05258699401830265</mytracks:gradient><mytracks:length>0.004966667842659777</mytracks:length></extensions></trkpt><trkpt lat="33.59000571637247" lon="130.3522886228015"><ele>6.033488649874926</ele><time>2025-12-30T12:24:52.00000Z</time><extensions><mytracks:speed>3.198663096531678</mytracks:speed><mytracks:gradient>0.01224462476353541</mytracks:gradient><mytracks:length>0.02665552580443065</mytracks:length></extensions></trkpt><trkpt lat="33.5900083081489" lon="130.3522791126325"><ele>5.710264516864489</ele><time>2025-12-30T12:24:57.00000Z</time><extensions><mytracks:speed>0.6662266742432137</mytracks:speed><mytracks:length>0.0009253148253377968</mytracks:length></extensions></trkpt><trkpt lat="33.59003162450366" lon="130.3522759785709"><ele>5.82550786050899</ele><time>2025-12-30T12:25:03.00000Z</time><extensions><mytracks:speed>1.565137308804305</mytracks:speed><mytracks:gradient>0.04417887542373196</mytracks:gradient><mytracks:length>0.002608562181340509</mytracks:length></extensions></trkpt><trkpt lat="33.59005202471094" lon="130.3522808465148"><ele>5.645270012072885</ele><time>2025-12-30T12:25:08.00000Z</time><extensions><mytracks:speed>1.665917294323768</mytracks:speed><mytracks:length>0.002313774019894123</mytracks:length></extensions></trkpt><trkpt lat="33.59006395480662" lon="130.3522863526847"><ele>5.486144678347737</ele><time>2025-12-30T12:25:14.00000Z</time><extensions><mytracks:speed>0.8544176816940324</mytracks:speed><mytracks:length>0.001424029469490054</mytracks:length></extensions></trkpt><trkpt lat="33.59011248260961" lon="130.3522824239602"><ele>5.490051421369036</ele><time>2025-12-30T12:25:20.00000Z</time><extensions><mytracks:speed>3.245287865864074</mytracks:speed><mytracks:gradient>0.0007222921077158408</mytracks:gradient><mytracks:length>0.005408813109773456</mytracks:length></extensions></trkpt><trkpt lat="33.59014997929029" lon="130.3522807449889"><ele>5.724233448640906</ele><time>2025-12-30T12:25:25.00000Z</time><extensions><mytracks:speed>3.003664012019718</mytracks:speed><mytracks:gradient>0.05613512661902858</mytracks:gradient><mytracks:length>0.004171755572249608</mytracks:length></extensions></trkpt><trkpt lat="33.59021601068407" lon="130.3522679269956"><ele>5.837588191388615</ele><time>2025-12-30T12:25:37.00000Z</time><extensions><mytracks:speed>2.231141088346037</mytracks:speed><mytracks:gradient>0.01524171779272021</mytracks:gradient><mytracks:length>0.007437136961153455</mytracks:length></extensions></trkpt><trkpt lat="33.59027103304912" lon="130.3522590411781"><ele>5.780246148930956</ele><time>2025-12-30T12:25:44.00000Z</time><extensions><mytracks:speed>3.174677893848819</mytracks:speed><mytracks:length>0.006172984793594926</mytracks:length></extensions></trkpt><trkpt lat="33.59095030511967" lon="130.3521534645511"><ele>5.073409150354564</ele><time>2025-12-30T12:27:14.00000Z</time><extensions><mytracks:speed>3.046478297275427</mytracks:speed><mytracks:length>0.07616195743188567</mytracks:length></extensions></trkpt><trkpt lat="33.59099363179621" lon="130.3521550394086"><ele>5.116500224792363</ele><time>2025-12-30T12:27:18.00000Z</time><extensions><mytracks:speed>4.337379640102458</mytracks:speed><mytracks:gradient>0.008941335601672767</mytracks:gradient><mytracks:length>0.004819310711224953</mytracks:length></extensions></trkpt><trkpt lat="33.5910446731413" lon="130.3521484877023"><ele>5.048063810796746</ele><time>2025-12-30T12:27:23.00000Z</time><extensions><mytracks:speed>4.109740167258145</mytracks:speed><mytracks:length>0.005707972454525202</mytracks:length></extensions></trkpt><trkpt lat="33.59109853325832" lon="130.3521484212024"><ele>5.189877514376083</ele><time>2025-12-30T12:27:28.00000Z</time><extensions><mytracks:speed>4.311686577177114</mytracks:speed><mytracks:gradient>0.02368118942540854</mytracks:gradient><mytracks:length>0.005988453579412658</mytracks:length></extensions></trkpt><trkpt lat="33.59115013526565" lon="130.3521372629995"><ele>5.453627928202753</ele><time>2025-12-30T12:27:33.00000Z</time><extensions><mytracks:speed>4.196921917378042</mytracks:speed><mytracks:gradient>0.04524751751251053</mytracks:gradient><mytracks:length>0.005829058218580613</mytracks:length></extensions></trkpt><trkpt lat="33.59119588838193" lon="130.3521308159709"><ele>5.568369309823218</ele><time>2025-12-30T12:27:38.00000Z</time><extensions><mytracks:speed>3.688551908198275</mytracks:speed><mytracks:gradient>0.02239735181254071</mytracks:gradient><mytracks:length>0.005122988761386492</mytracks:length></extensions></trkpt><trkpt lat="33.59123779267644" lon="130.3521202312405"><ele>5.469859980895269</ele><time>2025-12-30T12:27:43.00000Z</time><extensions><mytracks:speed>3.428589830399901</mytracks:speed><mytracks:length>0.004761930319999862</mytracks:length></extensions></trkpt><trkpt lat="33.59127935060619" lon="130.3521091281263"><ele>5.58551674528214</ele><time>2025-12-30T12:27:48.00000Z</time><extensions><mytracks:speed>3.408087813827815</mytracks:speed><mytracks:gradient>0.02443389809989034</mytracks:gradient><mytracks:length>0.004733455296983076</mytracks:length></extensions></trkpt><trkpt lat="33.59129087292939" lon="130.3521008544885"><ele>5.547393324436219</ele><time>2025-12-30T12:27:53.00000Z</time><extensions><mytracks:speed>1.074258233308106</mytracks:speed><mytracks:length>0.001492025324039036</mytracks:length></extensions></trkpt><trkpt lat="33.59130492203809" lon="130.3520912944489"><ele>5.128651902181456</ele><time>2025-12-30T12:27:58.00000Z</time><extensions><mytracks:speed>1.29149973770164</mytracks:speed><mytracks:length>0.001793749635696723</mytracks:length></extensions></trkpt><trkpt lat="33.59133334096808" lon="130.3520843346996"><ele>5.126714970109843</ele><time>2025-12-30T12:28:03.00000Z</time><extensions><mytracks:speed>2.322004829361794</mytracks:speed><mytracks:length>0.003225006707446936</mytracks:length></extensions></trkpt><trkpt lat="33.59134509294793" lon="130.3520843233791"><ele>5.414536247657731</ele><time>2025-12-30T12:28:08.00000Z</time><extensions><mytracks:speed>0.9397040883531811</mytracks:speed><mytracks:gradient>0.2205282731052596</mytracks:gradient><mytracks:length>0.001305144567157196</mytracks:length></extensions></trkpt><trkpt lat="33.59137484641888" lon="130.3520795094389"><ele>4.978352072259002</ele><time>2025-12-30T12:28:13.00000Z</time><extensions><mytracks:speed>2.40405868017166</mytracks:speed><mytracks:length>0.003338970389127306</mytracks:length></extensions></trkpt><trkpt lat="33.59145411048448" lon="130.3521752948866"><ele>5.193811442379578</ele><time>2025-12-30T12:28:35.00000Z</time><extensions><mytracks:speed>2.046361268266024</mytracks:speed><mytracks:gradient>0.01722911217323198</mytracks:gradient><mytracks:length>0.01250554108384793</mytracks:length></extensions></trkpt><trkpt lat="33.59180515456895" lon="130.3526049104448"><ele>6.278595183975995</ele><time>2025-12-30T12:30:09.00000Z</time><extensions><mytracks:speed>2.134811537688828</mytracks:speed><mytracks:gradient>0.01946069173750377</mytracks:gradient><mytracks:length>0.05574230126187495</mytracks:length></extensions></trkpt><trkpt lat="33.59181077923836" lon="130.3526657209074"><ele>6.479925077744759</ele><time>2025-12-30T12:30:13.00000Z</time><extensions><mytracks:speed>5.101524707508061</mytracks:speed><mytracks:gradient>0.03551818618563487</mytracks:gradient><mytracks:length>0.005668360786120067</mytracks:length></extensions></trkpt><trkpt lat="33.59181092717033" lon="130.3527293609639"><ele>6.628847262028468</ele><time>2025-12-30T12:30:18.00000Z</time><extensions><mytracks:speed>4.24452139334147</mytracks:speed><mytracks:gradient>0.02526173453913472</mytracks:gradient><mytracks:length>0.005895168601863154</mytracks:length></extensions></trkpt><trkpt lat="33.59181770124935" lon="130.3527886631701"><ele>6.318919413275268</ele><time>2025-12-30T12:30:23.00000Z</time><extensions><mytracks:speed>3.991511673570374</mytracks:speed><mytracks:length>0.005543766213292185</mytracks:length></extensions></trkpt><trkpt lat="33.59181775360589" lon="130.3528383941178"><ele>5.722464486740152</ele><time>2025-12-30T12:30:28.00000Z</time><extensions><mytracks:speed>3.316373555855527</mytracks:speed><mytracks:length>0.004606074383132676</mytracks:length></extensions></trkpt><trkpt lat="33.59182847260116" lon="130.3529015252044"><ele>6.211740886748074</ele><time>2025-12-30T12:30:33.00000Z</time><extensions><mytracks:speed>4.296489245885139</mytracks:speed><mytracks:gradient>0.08199229367165083</mytracks:gradient><mytracks:length>0.005967346174840472</mytracks:length></extensions></trkpt><trkpt lat="33.59183352124484" lon="130.3529613893902"><ele>6.348108082125437</ele><time>2025-12-30T12:30:38.00000Z</time><extensions><mytracks:speed>4.012525919452798</mytracks:speed><mytracks:gradient>0.0244694695168701</mytracks:gradient><mytracks:length>0.005572952665906664</mytracks:length></extensions></trkpt><trkpt lat="33.59184006809365" lon="130.3530111701999"><ele>6.242576462610898</ele><time>2025-12-30T12:30:43.00000Z</time><extensions><mytracks:speed>3.360458523257465</mytracks:speed><mytracks:length>0.004667303504524258</mytracks:length></extensions></trkpt><trkpt lat="33.59184288109187" lon="130.3530715607482"><ele>6.354718476272446</ele><time>2025-12-30T12:30:48.00000Z</time><extensions><mytracks:speed>4.034009823685504</mytracks:speed><mytracks:gradient>0.02001538255118782</mytracks:gradient><mytracks:length>0.005602791421785422</mytracks:length></extensions></trkpt><trkpt lat="33.59185258973511" lon="130.3531332241817"><ele>6.451915063902149</ele><time>2025-12-30T12:30:53.00000Z</time><extensions><mytracks:speed>4.185774694724366</mytracks:speed><mytracks:gradient>0.01671889869791333</mytracks:gradient><mytracks:length>0.005813575964894954</mytracks:length></extensions></trkpt><trkpt lat="33.59185931640781" lon="130.3531947265862"><ele>6.220996416514539</ele><time>2025-12-30T12:30:58.00000Z</time><extensions><mytracks:speed>4.136370043706473</mytracks:speed><mytracks:length>0.005744958394036768</mytracks:length></extensions></trkpt><trkpt lat="33.59186786480143" lon="130.3532358573474"><ele>6.509280713815004</ele><time>2025-12-30T12:31:03.00000Z</time><extensions><mytracks:speed>2.827386753841084</mytracks:speed><mytracks:gradient>0.07341220431706148</mytracks:gradient><mytracks:length>0.003926926047001506</mytracks:length></extensions></trkpt><trkpt lat="33.59187116622858" lon="130.3532881699458"><ele>6.612906833138401</ele><time>2025-12-30T12:31:08.00000Z</time><extensions><mytracks:speed>3.498733472287197</mytracks:speed><mytracks:gradient>0.02132508992291744</mytracks:gradient><mytracks:length>0.004859352044843329</mytracks:length></extensions></trkpt><trkpt lat="33.59186479573594" lon="130.3533214900607"><ele>6.678383434810295</ele><time>2025-12-30T12:31:13.00000Z</time><extensions><mytracks:speed>2.280383008872462</mytracks:speed><mytracks:gradient>0.02067334874025116</mytracks:gradient><mytracks:length>0.003167198623433975</mytracks:length></extensions></trkpt><trkpt lat="33.5918626017399" lon="130.3533846190007"><ele>6.298447193091235</ele><time>2025-12-30T12:31:19.00000Z</time><extensions><mytracks:speed>3.51178486672285</mytracks:speed><mytracks:length>0.005852974777871415</mytracks:length></extensions></trkpt><trkpt lat="33.59187275214867" lon="130.353686182826"><ele>7.050641955807805</ele><time>2025-12-30T12:31:44.00000Z</time><extensions><mytracks:speed>4.025569299082894</mytracks:speed><mytracks:gradient>0.02690701309150551</mytracks:gradient><mytracks:length>0.02795534235474232</mytracks:length></extensions></trkpt><trkpt lat="33.59188055470928" lon="130.3537321900686"><ele>6.98408742166772</ele><time>2025-12-30T12:31:49.00000Z</time><extensions><mytracks:speed>3.131601075475317</mytracks:speed><mytracks:length>0.004349445938160162</mytracks:length></extensions></trkpt><trkpt lat="33.59189001931686" lon="130.3537807619827"><ele>6.956830993634037</ele><time>2025-12-30T12:31:54.00000Z</time><extensions><mytracks:speed>3.326922962912999</mytracks:speed><mytracks:length>0.004620726337379165</mytracks:length></extensions></trkpt><trkpt lat="33.59189898448168" lon="130.3538205995482"><ele>7.019219049366682</ele><time>2025-12-30T12:31:59.00000Z</time><extensions><mytracks:speed>2.752020861242906</mytracks:speed><mytracks:gradient>0.01632233271197552</mytracks:gradient><mytracks:length>0.003822251196170703</mytracks:length></extensions></trkpt><trkpt lat="33.59190723575224" lon="130.3538397300046"><ele>7.193469056905742</ele><time>2025-12-30T12:32:04.00000Z</time><extensions><mytracks:speed>1.437048245943725</mytracks:speed><mytracks:gradient>0.08730396198057511</mytracks:gradient><mytracks:length>0.001995900341588506</mytracks:length></extensions></trkpt><trkpt lat="33.59190718289952" lon="130.353883347723"><ele>7.134620371367202</ele><time>2025-12-30T12:32:09.00000Z</time><extensions><mytracks:speed>2.908837359438054</mytracks:speed><mytracks:length>0.004040051888108408</mytracks:length></extensions></trkpt><trkpt lat="33.59190290209234" lon="130.3539286300787"><ele>6.925825643987206</ele><time>2025-12-30T12:32:14.00000Z</time><extensions><mytracks:speed>3.038461126070617</mytracks:speed><mytracks:length>0.004220084897320302</mytracks:length></extensions></trkpt><trkpt lat="33.59190211578996" lon="130.3539793547307"><ele>6.33932004278259</ele><time>2025-12-30T12:32:19.00000Z</time><extensions><mytracks:speed>3.383321405472691</mytracks:speed><mytracks:length>0.00469905750760096</mytracks:length></extensions></trkpt><trkpt lat="33.59190075574671" lon="130.3540313122109"><ele>6.346505721419996</ele><time>2025-12-30T12:32:24.00000Z</time><extensions><mytracks:speed>3.467209687054642</mytracks:speed><mytracks:gradient>0.001492176443279283</mytracks:gradient><mytracks:length>0.004815569009798114</mytracks:length></extensions></trkpt><trkpt lat="33.59191461836466" lon="130.3540825590298"><ele>6.381302623026191</ele><time>2025-12-30T12:32:29.00000Z</time><extensions><mytracks:speed>3.594245867426061</mytracks:speed><mytracks:gradient>0.00697052179527222</mytracks:gradient><mytracks:length>0.004992008149202862</mytracks:length></extensions></trkpt><trkpt lat="33.59192419230282" lon="130.3541339307826"><ele>6.614405523649239</ele><time>2025-12-30T12:32:33.00000Z</time><extensions><mytracks:speed>4.388414313051826</mytracks:speed><mytracks:gradient>0.04780601729804482</mytracks:gradient><mytracks:length>0.004876015903390918</mytracks:length></extensions></trkpt><trkpt lat="33.59232625927179" lon="130.354780275496"><ele>-0.5607643127441406</ele><time>2026-01-01T08:12:47.00000Z</time><extensions><mytracks:speed>0.001710968951638706</mytracks:speed><mytracks:length>0.07471896482860452</mytracks:length></extensions></trkpt></trkseg></trk></gpx>

