<?xml version="1.0" encoding="utf-8"?>
<gpx xmlns="http://www.topografix.com/GPX/1/1" xmlns:xsd="http://www.w3.org/2001/XMLSchema" xmlns:xsi="http://www.w3.org/2001/XMLSchema-instance" xmlns:mytracks="http://mytracks.stichling.info/myTracksGPX/1/0" creator="myTracks" version="1.1" xsi:schemaLocation="http://www.topografix.com/GPX/1/1 http://www.topografix.com/GPX/1/1/gpx.xsd"><trk><name>2025-12-20 23:23:12</name><extensions><mytracks:color red="0.000000" green="0.000000" blue="1.000000" alpha="1.000000"/><mytracks:area showArea="no" areaDistance="0.000000"/><mytracks:directionArrows showDirectionArrows="yes"/><mytracks:sync syncPhotosOniPhone="no"/><mytracks:timezone offset="540"/></extensions><trkseg><trkpt lat="33.5964033017811" lon="130.3633080220058"><ele>7.749233245849609</ele><time>2025-12-20T14:23:12.02200Z</time><extensions><mytracks:speed>0</mytracks:speed><mytracks:gradient>0</mytracks:gradient><mytracks:length>0</mytracks:length></extensions></trkpt><trkpt lat="33.59652140997001" lon="130.3632663190492"><ele>6.032192369922996</ele><time>2025-12-20T14:23:31.00100Z</time><extensions><mytracks:speed>2.596654146898514</mytracks:speed><mytracks:length>0.0136894592903542</mytracks:length></extensions></trkpt><trkpt lat="33.59657557333558" lon="130.3631816270778"><ele>5.894924302585423</ele><time>2025-12-20T14:23:39.00100Z</time><extensions><mytracks:speed>4.450757266103244</mytracks:speed><mytracks:length>0.009889688448099249</mytracks:length></extensions></trkpt><trkpt lat="33.59663499623316" lon="130.363142967403"><ele>6.119477212715446</ele><time>2025-12-20T14:23:43.98400Z</time><extensions><mytracks:speed>5.428415770927133</mytracks:speed><mytracks:gradient>0.02988104452504571</mytracks:gradient><mytracks:length>0.007514894934205097</mytracks:length></extensions></trkpt><trkpt lat="33.59667762027491" lon="130.3630858082443"><ele>6.001836298408072</ele><time>2025-12-20T14:23:48.99500Z</time><extensions><mytracks:speed>5.105209011580448</mytracks:speed><mytracks:length>0.007105575691033809</mytracks:length></extensions></trkpt><trkpt lat="33.59671849881688" lon="130.3630357641768"><ele>6.727480285624966</ele><time>2025-12-20T14:23:54.00800Z</time><extensions><mytracks:speed>4.662418041323643</mytracks:speed><mytracks:gradient>0.1117785912611156</mytracks:gradient><mytracks:length>0.006491797570804815</mytracks:length></extensions></trkpt><trkpt lat="33.5967622688306" lon="130.3629867579379"><ele>6.595823343688836</ele><time>2025-12-20T14:23:59.00800Z</time><extensions><mytracks:speed>4.79128981088436</mytracks:speed><mytracks:length>0.006655634724162851</mytracks:length></extensions></trkpt><trkpt lat="33.59680786930086" lon="130.3629329146728"><ele>7.791833683010656</ele><time>2025-12-20T14:24:04.00400Z</time><extensions><mytracks:speed>5.125006610478487</mytracks:speed><mytracks:gradient>0.1681699461360297</mytracks:gradient><mytracks:length>0.007111914862328539</mytracks:length></extensions></trkpt><trkpt lat="33.59685638280963" lon="130.3628771512513"><ele>7.084666224347201</ele><time>2025-12-20T14:24:08.99700Z</time><extensions><mytracks:speed>5.384154426051565</mytracks:speed><mytracks:length>0.007467975256369663</mytracks:length></extensions></trkpt><trkpt lat="33.59689239626577" lon="130.3628243878945"><ele>8.05227142765102</ele><time>2025-12-20T14:24:13.99800Z</time><extensions><mytracks:speed>4.548581026980569</mytracks:speed><mytracks:gradient>0.1531502242848056</mytracks:gradient><mytracks:length>0.006318013622392179</mytracks:length></extensions></trkpt><trkpt lat="33.59693814245831" lon="130.362770287731"><ele>7.895824086081363</ele><time>2025-12-20T14:24:18.99900Z</time><extensions><mytracks:speed>5.139696250214416</mytracks:speed><mytracks:length>0.00714037148858551</mytracks:length></extensions></trkpt><trkpt lat="33.59698277210434" lon="130.3627163055953"><ele>8.123228126815956</ele><time>2025-12-20T14:24:23.99600Z</time><extensions><mytracks:speed>5.075182288574376</mytracks:speed><mytracks:gradient>0.03228139961518225</mytracks:gradient><mytracks:length>0.007044429406575143</mytracks:length></extensions></trkpt><trkpt lat="33.59702827076541" lon="130.3626652597831"><ele>7.739159095961968</ele><time>2025-12-20T14:24:28.99900Z</time><extensions><mytracks:speed>4.982154506234014</mytracks:speed><mytracks:length>0.006924422102633549</mytracks:length></extensions></trkpt><trkpt lat="33.5970635930134" lon="130.362613270613"><ele>6.301232484054674</ele><time>2025-12-20T14:24:34.00000Z</time><extensions><mytracks:speed>4.474132072953655</mytracks:speed><mytracks:length>0.00621445619322787</mytracks:length></extensions></trkpt><trkpt lat="33.59709383461444" lon="130.362562874098"><ele>6.049183617444067</ele><time>2025-12-20T14:24:38.99900Z</time><extensions><mytracks:speed>4.142267203655392</mytracks:speed><mytracks:length>0.005752797063795357</mytracks:length></extensions></trkpt><trkpt lat="33.59714675042155" lon="130.3625040368598"><ele>5.146698433631849</ele><time>2025-12-20T14:24:43.99200Z</time><extensions><mytracks:speed>5.782405369469401</mytracks:speed><mytracks:length>0.008019644896630462</mytracks:length></extensions></trkpt><trkpt lat="33.59721181804397" lon="130.3624422936598"><ele>6.592489522284963</ele><time>2025-12-20T14:24:48.99300Z</time><extensions><mytracks:speed>6.639047615517364</mytracks:speed><mytracks:gradient>0.1567692383044349</mytracks:gradient><mytracks:length>0.009222415725752832</mytracks:length></extensions></trkpt><trkpt lat="33.59723937628695" lon="130.3624085061132"><ele>7.083803684720912</ele><time>2025-12-20T14:24:54.00100Z</time><extensions><mytracks:speed>3.148329585100384</mytracks:speed><mytracks:gradient>0.1121878314873874</mytracks:gradient><mytracks:length>0.004379389064946716</mytracks:length></extensions></trkpt><trkpt lat="33.59728642285398" lon="130.3623456941967"><ele>7.424223710996904</ele><time>2025-12-20T14:24:58.98700Z</time><extensions><mytracks:speed>5.649042015440283</mytracks:speed><mytracks:gradient>0.04350994601711173</mytracks:gradient><mytracks:length>0.00782395882868045</mytracks:length></extensions></trkpt><trkpt lat="33.59733765587838" lon="130.3622721896379"><ele>7.764088449401164</ele><time>2025-12-20T14:25:04.01000Z</time><extensions><mytracks:speed>6.362668953847985</mytracks:speed><mytracks:gradient>0.03828452964101346</mytracks:gradient><mytracks:length>0.008877338747298347</mytracks:length></extensions></trkpt><trkpt lat="33.59739320893963" lon="130.3622202221372"><ele>8.002710497694933</ele><time>2025-12-20T14:25:08.99600Z</time><extensions><mytracks:speed>5.65315092073673</mytracks:speed><mytracks:gradient>0.03047198171227742</mytracks:gradient><mytracks:length>0.007830867402943654</mytracks:length></extensions></trkpt><trkpt lat="33.59743243894626" lon="130.3621751408143"><ele>7.002325893346796</ele><time>2025-12-20T14:25:14.00200Z</time><extensions><mytracks:speed>4.343056905669664</mytracks:speed><mytracks:length>0.006038661101301617</mytracks:length></extensions></trkpt><trkpt lat="33.59747198425244" lon="130.3621205039819"><ele>5.585303643879992</ele><time>2025-12-20T14:25:19.50000Z</time><extensions><mytracks:speed>4.38971917098482</mytracks:speed><mytracks:length>0.006704206795667537</mytracks:length></extensions></trkpt><trkpt lat="33.59752627838184" lon="130.3620536642339"><ele>5.094115438374819</ele><time>2025-12-20T14:25:24.50300Z</time><extensions><mytracks:speed>6.221681887273946</mytracks:speed><mytracks:length>0.008646932912653532</mytracks:length></extensions></trkpt><trkpt lat="33.5975625213671" lon="130.362002750258"><ele>3.343631115987027</ele><time>2025-12-20T14:25:29.50500Z</time><extensions><mytracks:speed>4.464139643081276</mytracks:speed><mytracks:length>0.006202116549529684</mytracks:length></extensions></trkpt><trkpt lat="33.59760376737542" lon="130.3619437907438"><ele>3.805317986927018</ele><time>2025-12-20T14:25:34.49900Z</time><extensions><mytracks:speed>5.140543982593979</mytracks:speed><mytracks:gradient>0.06474455733494876</mytracks:gradient><mytracks:length>0.007130898564206788</mytracks:length></extensions></trkpt><trkpt lat="33.59756703377224" lon="130.3618697118243"><ele>3.989474454787003</ele><time>2025-12-20T14:25:40.00800Z</time><extensions><mytracks:speed>5.217624699053715</mytracks:speed><mytracks:gradient>0.02306358054566441</mytracks:gradient><mytracks:length>0.007984730189458968</mytracks:length></extensions></trkpt><trkpt lat="33.59754040326708" lon="130.3618120979305"><ele>4.121899478952135</ele><time>2025-12-20T14:25:44.99800Z</time><extensions><mytracks:speed>4.402797580381399</mytracks:speed><mytracks:gradient>0.02169749717021238</mytracks:gradient><mytracks:length>0.006103239609909162</mytracks:length></extensions></trkpt><trkpt lat="33.5975173398401" lon="130.3617619940994"><ele>4.208844286554752</ele><time>2025-12-20T14:25:50.00000Z</time><extensions><mytracks:speed>3.816374141673013</mytracks:speed><mytracks:gradient>0.01639602742044002</mytracks:gradient><mytracks:length>0.005302797157696157</mytracks:length></extensions></trkpt><trkpt lat="33.59749056299984" lon="130.3617086137289"><ele>3.82034714359488</ele><time>2025-12-20T14:25:55.00000Z</time><extensions><mytracks:speed>4.155562014704197</mytracks:speed><mytracks:length>0.005771566435241819</mytracks:length></extensions></trkpt><trkpt lat="33.59746567243542" lon="130.3616547212901"><ele>4.046473159406847</ele><time>2025-12-20T14:25:59.99600Z</time><extensions><mytracks:speed>4.113224190252356</mytracks:speed><mytracks:gradient>0.03961582113675016</mytracks:gradient><mytracks:length>0.005707972454525202</mytracks:length></extensions></trkpt><trkpt lat="33.59744685492342" lon="130.3615948809572"><ele>4.139488911830443</ele><time>2025-12-20T14:26:04.99700Z</time><extensions><mytracks:speed>4.265016280460476</mytracks:speed><mytracks:gradient>0.01569911080327558</mytracks:gradient><mytracks:length>0.005924905785376598</mytracks:length></extensions></trkpt><trkpt lat="33.59742075917135" lon="130.3615340186085"><ele>4.259427916023215</ele><time>2025-12-20T14:26:09.99600Z</time><extensions><mytracks:speed>4.565360867647809</mytracks:speed><mytracks:gradient>0.01891968863013396</mytracks:gradient><mytracks:length>0.006339375162958098</mytracks:length></extensions></trkpt><trkpt lat="33.59740092539528" lon="130.3614780764162"><ele>4.271532607783237</ele><time>2025-12-20T14:26:14.99800Z</time><extensions><mytracks:speed>4.052130466260294</mytracks:speed><mytracks:gradient>0.002150006796790789</mytracks:gradient><mytracks:length>0.005630071392374056</mytracks:length></extensions></trkpt><trkpt lat="33.59737504736263" lon="130.3614273657532"><ele>4.451203375610327</ele><time>2025-12-20T14:26:20.00200Z</time><extensions><mytracks:speed>3.963159836793785</mytracks:speed><mytracks:gradient>0.03261580844153242</mytracks:gradient><mytracks:length>0.005508701958106328</mytracks:length></extensions></trkpt><trkpt lat="33.59735518576311" lon="130.3613760394404"><ele>4.44108839145112</ele><time>2025-12-20T14:26:25.00100Z</time><extensions><mytracks:speed>3.775257723267619</mytracks:speed><mytracks:length>0.005242113622278509</mytracks:length></extensions></trkpt><trkpt lat="33.59732958318624" lon="130.3613218577503"><ele>4.107775186903204</ele><time>2025-12-20T14:26:29.99900Z</time><extensions><mytracks:speed>4.155060080238333</mytracks:speed><mytracks:length>0.005769223603225158</mytracks:length></extensions></trkpt><trkpt lat="33.59730221584198" lon="130.3612777202979"><ele>3.970255159838829</ele><time>2025-12-20T14:26:34.99900Z</time><extensions><mytracks:speed>3.669416449703875</mytracks:speed><mytracks:length>0.005096531421005414</mytracks:length></extensions></trkpt><trkpt lat="33.59727133554142" lon="130.3612173300601"><ele>4.276063391258238</ele><time>2025-12-20T14:26:40.00200Z</time><extensions><mytracks:speed>4.72301754770534</mytracks:speed><mytracks:gradient>0.04659646150876356</mytracks:gradient><mytracks:length>0.006562906742648148</mytracks:length></extensions></trkpt><trkpt lat="33.59725341123343" lon="130.3611559028333"><ele>4.221505665054557</ele><time>2025-12-20T14:26:45.00400Z</time><extensions><mytracks:speed>4.337822500316572</mytracks:speed><mytracks:length>0.006027456945874838</mytracks:length></extensions></trkpt><trkpt lat="33.59723281624569" lon="130.3610936532135"><ele>3.766038865796446</ele><time>2025-12-20T14:26:50.00300Z</time><extensions><mytracks:speed>4.467450504160879</mytracks:speed><mytracks:length>0.006203569546281381</mytracks:length></extensions></trkpt><trkpt lat="33.59721343102573" lon="130.3610307574528"><ele>3.722523556077167</ele><time>2025-12-20T14:26:55.00400Z</time><extensions><mytracks:speed>4.471181887862156</mytracks:speed><mytracks:length>0.006210829431207135</mytracks:length></extensions></trkpt><trkpt lat="33.59717145698389" lon="130.3609770787524"><ele>4.079713684689346</ele><time>2025-12-20T14:27:00.00100Z</time><extensions><mytracks:speed>4.912335047110628</mytracks:speed><mytracks:gradient>0.05238283105387352</mytracks:gradient><mytracks:length>0.006818839711905306</mytracks:length></extensions></trkpt><trkpt lat="33.59712908461858" lon="130.3609257783434"><ele>4.054031402494696</ele><time>2025-12-20T14:27:05.00100Z</time><extensions><mytracks:speed>4.816991272628097</mytracks:speed><mytracks:length>0.006690749923818471</mytracks:length></extensions></trkpt><trkpt lat="33.59709739829875" lon="130.3608704802961"><ele>3.939447436072324</ele><time>2025-12-20T14:27:10.00100Z</time><extensions><mytracks:speed>4.476033290121748</mytracks:speed><mytracks:length>0.006216631234836752</mytracks:length></extensions></trkpt><trkpt lat="33.59706740083533" lon="130.3608156881218"><ele>3.750746680203501</ele><time>2025-12-20T14:27:15.00100Z</time><extensions><mytracks:speed>4.372559630528743</mytracks:speed><mytracks:length>0.00607289161711029</mytracks:length></extensions></trkpt><trkpt lat="33.59704542499296" lon="130.360761361764"><ele>4.226849855054629</ele><time>2025-12-20T14:27:19.99800Z</time><extensions><mytracks:speed>4.029134853084783</mytracks:speed><mytracks:gradient>0.08512282982469221</mytracks:gradient><mytracks:length>0.005593131429390299</mytracks:length></extensions></trkpt><trkpt lat="33.59702089537659" lon="130.3607031840631"><ele>4.384091897536822</ele><time>2025-12-20T14:27:25.49900Z</time><extensions><mytracks:speed>3.95236229923008</mytracks:speed><mytracks:gradient>0.0260392229079224</mytracks:gradient><mytracks:length>0.006038661101301617</mytracks:length></extensions></trkpt><trkpt lat="33.59695656681509" lon="130.3605552365068"><ele>4.344064400173758</ele><time>2025-12-20T14:27:39.33900Z</time><extensions><mytracks:speed>4.020637141465264</mytracks:speed><mytracks:length>0.01545726247772558</mytracks:length></extensions></trkpt><trkpt lat="33.59671143288868" lon="130.359990019427"><ele>4.403134224005044</ele><time>2025-12-20T14:28:32.00000Z</time><extensions><mytracks:speed>4.034853295785175</mytracks:speed><mytracks:gradient>0.001000817248120306</mytracks:gradient><mytracks:length>0.05902158854898677</mytracks:length></extensions></trkpt><trkpt lat="33.59669412567011" lon="130.3599375221264"><ele>4.510674183846863</ele><time>2025-12-20T14:28:36.99800Z</time><extensions><mytracks:speed>3.765889578272762</mytracks:speed><mytracks:gradient>0.02056526754785042</mytracks:gradient><mytracks:length>0.005229203052749002</mytracks:length></extensions></trkpt><trkpt lat="33.59667283195022" lon="130.3598874132743"><ele>4.280088349260413</ele><time>2025-12-20T14:28:42.00000Z</time><extensions><mytracks:speed>3.749770799403918</mytracks:speed><mytracks:length>0.005210209681892064</mytracks:length></extensions></trkpt><trkpt lat="33.5966528297795" lon="130.3598345046671"><ele>4.614427457342299</ele><time>2025-12-20T14:28:47.00000Z</time><extensions><mytracks:speed>3.875216488994954</mytracks:speed><mytracks:gradient>0.06212072641091159</mytracks:gradient><mytracks:length>0.005382086260072441</mytracks:length></extensions></trkpt><trkpt lat="33.5966313183066" lon="130.3597897880664"><ele>4.640174925718809</ele><time>2025-12-20T14:28:51.99700Z</time><extensions><mytracks:speed>3.446138136476918</mytracks:speed><mytracks:gradient>0.005383454002766325</mytracks:gradient><mytracks:length>0.00478270425702151</mytracks:length></extensions></trkpt><trkpt lat="33.59661127412453" lon="130.3597360065655"><ele>4.836433723112633</ele><time>2025-12-20T14:28:57.00200Z</time><extensions><mytracks:speed>3.924607212554364</mytracks:speed><mytracks:gradient>0.03596511026750742</mytracks:gradient><mytracks:length>0.005456921887186137</mytracks:length></extensions></trkpt><trkpt lat="33.59660464564074" lon="130.3596808352946"><ele>4.942640235789924</ele><time>2025-12-20T14:29:01.99800Z</time><extensions><mytracks:speed>3.719212600610208</mytracks:speed><mytracks:gradient>0.02057648633891388</mytracks:gradient><mytracks:length>0.005161547551315176</mytracks:length></extensions></trkpt><trkpt lat="33.59658062798584" lon="130.3596322007995"><ele>5.176349570267488</ele><time>2025-12-20T14:29:06.99800Z</time><extensions><mytracks:speed>3.770185002357862</mytracks:speed><mytracks:gradient>0.04463430081175928</mytracks:gradient><mytracks:length>0.005236092651326812</mytracks:length></extensions></trkpt><trkpt lat="33.59655122870733" lon="130.3595842314264"><ele>5.152074254245004</ele><time>2025-12-20T14:29:11.99800Z</time><extensions><mytracks:speed>3.97130856638081</mytracks:speed><mytracks:length>0.005516059432279855</mytracks:length></extensions></trkpt><trkpt lat="33.59653287498068" lon="130.3595346391491"><ele>5.188302147059853</ele><time>2025-12-20T14:29:17.00000Z</time><extensions><mytracks:speed>3.617535491082946</mytracks:speed><mytracks:gradient>0.007207817924273381</mytracks:gradient><mytracks:length>0.005026194223476027</mytracks:length></extensions></trkpt><trkpt lat="33.59651814458582" lon="130.3594894720833"><ele>5.72811963256442</ele><time>2025-12-20T14:29:21.99700Z</time><extensions><mytracks:speed>3.23549773909836</mytracks:speed><mytracks:gradient>0.1201957713835022</mytracks:gradient><mytracks:length>0.004491152053778994</mytracks:length></extensions></trkpt><trkpt lat="33.59651698748088" lon="130.3594841186216"><ele>5.992828961061567</ele><time>2025-12-20T14:29:26.99800Z</time><extensions><mytracks:speed>0.3616091271422172</mytracks:speed><mytracks:gradient>0.5269416328259654</mytracks:gradient><mytracks:length>0.0005023503781197223</mytracks:length></extensions></trkpt><trkpt lat="33.5964682482259" lon="130.3593546807241"><ele>5.795228034048054</ele><time>2025-12-20T14:29:40.49000Z</time><extensions><mytracks:speed>3.510574230661678</mytracks:speed><mytracks:length>0.01315633349045329</mytracks:length></extensions></trkpt><trkpt lat="33.59621255575422" lon="130.35867860108"><ele>4.756858005188406</ele><time>2025-12-20T14:30:51.00000Z</time><extensions><mytracks:speed>3.511242383257954</mytracks:speed><mytracks:length>0.06877123731085417</mytracks:length></extensions></trkpt><trkpt lat="33.59618838164918" lon="130.3586237621768"><ele>5.01786655364304</ele><time>2025-12-20T14:30:55.99800Z</time><extensions><mytracks:speed>4.138455722883139</mytracks:speed><mytracks:gradient>0.04542022498269448</mytracks:gradient><mytracks:length>0.005746526983388602</mytracks:length></extensions></trkpt><trkpt lat="33.59617211780213" lon="130.3585666783515"><ele>4.587926894257202</ele><time>2025-12-20T14:31:01.00300Z</time><extensions><mytracks:speed>4.019811291580318</mytracks:speed><mytracks:length>0.005588295171305306</mytracks:length></extensions></trkpt><trkpt lat="33.59615161746004" lon="130.3585080540639"><ele>4.363726871534871</ele><time>2025-12-20T14:31:06.00300Z</time><extensions><mytracks:speed>4.239954786096207</mytracks:speed><mytracks:length>0.005888284847660999</mytracks:length></extensions></trkpt><trkpt lat="33.59613634785334" lon="130.358447354043"><ele>4.099453037332094</ele><time>2025-12-20T14:31:11.00200Z</time><extensions><mytracks:speed>4.228649755154732</mytracks:speed><mytracks:length>0.005872958728885826</mytracks:length></extensions></trkpt><trkpt lat="33.59612499799674" lon="130.3584031266182"><ele>3.63076893309035</ele><time>2025-12-20T14:31:15.99800Z</time><extensions><mytracks:speed>3.087861260033234</mytracks:speed><mytracks:length>0.004284727750906056</mytracks:length></extensions></trkpt><trkpt lat="33.59611562017033" lon="130.3583726714967"><ele>3.527104662568949</ele><time>2025-12-20T14:31:20.99900Z</time><extensions><mytracks:speed>2.164051934887376</mytracks:speed><mytracks:length>0.00300661752344619</mytracks:length></extensions></trkpt><trkpt lat="33.59609522369066" lon="130.3583155457501"><ele>3.333798939799113</ele><time>2025-12-20T14:31:25.99400Z</time><extensions><mytracks:speed>4.14965656763452</mytracks:speed><mytracks:length>0.005757495143029809</mytracks:length></extensions></trkpt><trkpt lat="33.59607000716905" lon="130.3582616790802"><ele>3.973074255933074</ele><time>2025-12-20T14:31:30.99700Z</time><extensions><mytracks:speed>4.118178360138225</mytracks:speed><mytracks:gradient>0.1117037508554546</mytracks:gradient><mytracks:length>0.005722953000577277</mytracks:length></extensions></trkpt><trkpt lat="33.59603991402842" lon="130.3582067994422"><ele>4.796888721773367</ele><time>2025-12-20T14:31:35.99700Z</time><extensions><mytracks:speed>4.380972571193838</mytracks:speed><mytracks:gradient>0.1353899657693523</mytracks:gradient><mytracks:length>0.006084752744850588</mytracks:length></extensions></trkpt><trkpt lat="33.59601071749152" lon="130.3581519524531"><ele>5.254649585264151</ele><time>2025-12-20T14:31:41.49900Z</time><extensions><mytracks:speed>3.945218746889322</mytracks:speed><mytracks:gradient>0.07592710320712895</mytracks:gradient><mytracks:length>0.006028952036297404</mytracks:length></extensions></trkpt><trkpt lat="33.59598414822479" lon="130.3580909058188"><ele>5.505047844394208</ele><time>2025-12-20T14:31:46.50300Z</time><extensions><mytracks:speed>4.589361102786878</mytracks:speed><mytracks:gradient>0.03924882147531145</mytracks:gradient><mytracks:length>0.006379765040526496</mytracks:length></extensions></trkpt><trkpt lat="33.59594329021817" lon="130.3580531364437"><ele>5.966225819477785</ele><time>2025-12-20T14:31:51.50100Z</time><extensions><mytracks:speed>4.129988926200188</mytracks:speed><mytracks:gradient>0.08042914008952952</mytracks:gradient><mytracks:length>0.005733966253651568</mytracks:length></extensions></trkpt><trkpt lat="33.59591268827901" lon="130.3580049858521"><ele>5.996395586998099</ele><time>2025-12-20T14:31:57.00200Z</time><extensions><mytracks:speed>3.671804758268926</mytracks:speed><mytracks:gradient>0.005377830728055821</mytracks:gradient><mytracks:length>0.005610025500230045</mytracks:length></extensions></trkpt><trkpt lat="33.59588417180667" lon="130.3579658207717"><ele>5.530287644848658</ele><time>2025-12-20T14:32:02.00000Z</time><extensions><mytracks:speed>3.469859511869515</mytracks:speed><mytracks:length>0.004817440223783558</mytracks:length></extensions></trkpt><trkpt lat="33.59585802531008" lon="130.3579139976148"><ele>6.709381635656068</ele><time>2025-12-20T14:32:07.00200Z</time><extensions><mytracks:speed>4.037655348687787</mytracks:speed><mytracks:gradient>0.2101461391075125</mytracks:gradient><mytracks:length>0.005610828710986574</mytracks:length></extensions></trkpt><trkpt lat="33.59582583841885" lon="130.3578700026245"><ele>7.171708216326535</ele><time>2025-12-20T14:32:12.00100Z</time><extensions><mytracks:speed>3.905731969033063</mytracks:speed><mytracks:gradient>0.08525357673232403</mytracks:gradient><mytracks:length>0.005422958172441994</mytracks:length></extensions></trkpt><trkpt lat="33.59580372222172" lon="130.3578206894936"><ele>6.569939371093425</ele><time>2025-12-20T14:32:16.99900Z</time><extensions><mytracks:speed>3.736009892747395</mytracks:speed><mytracks:length>0.005186804578705914</mytracks:length></extensions></trkpt><trkpt lat="33.59578086596509" lon="130.3577735127531"><ele>6.257214294399884</ele><time>2025-12-20T14:32:22.00300Z</time><extensions><mytracks:speed>3.636679241174087</mytracks:speed><mytracks:length>0.005055694594069178</mytracks:length></extensions></trkpt><trkpt lat="33.59575431190758" lon="130.3577270350676"><ele>6.385508823319098</ele><time>2025-12-20T14:32:27.00000Z</time><extensions><mytracks:speed>3.760958110420217</mytracks:speed><mytracks:gradient>0.02457883787942583</mytracks:gradient><mytracks:length>0.005219715006404147</mytracks:length></extensions></trkpt><trkpt lat="33.59573974807564" lon="130.3576762676004"><ele>5.962434740923473</ele><time>2025-12-20T14:32:32.00200Z</time><extensions><mytracks:speed>3.579773977761416</mytracks:speed><mytracks:length>0.004973921103687702</mytracks:length></extensions></trkpt><trkpt lat="33.59572241334418" lon="130.3576252010785"><ele>5.577459906771934</ele><time>2025-12-20T14:32:36.99900Z</time><extensions><mytracks:speed>3.679462231058013</mytracks:speed><mytracks:length>0.005107130804560836</mytracks:length></extensions></trkpt><trkpt lat="33.59570764205522" lon="130.3575659504332"><ele>6.042294175391183</ele><time>2025-12-20T14:32:42.00100Z</time><extensions><mytracks:speed>4.121886344530751</mytracks:speed><mytracks:gradient>0.08115583081019501</mytracks:gradient><mytracks:length>0.005727675559213862</mytracks:length></extensions></trkpt><trkpt lat="33.59569206816127" lon="130.3575143801525"><ele>5.867008292625265</ele><time>2025-12-20T14:32:47.00400Z</time><extensions><mytracks:speed>3.655452925746963</mytracks:speed><mytracks:length>0.005079703831927357</mytracks:length></extensions></trkpt><trkpt lat="33.59567278839276" lon="130.3574485438542"><ele>5.959212198982244</ele><time>2025-12-20T14:32:52.83600Z</time><extensions><mytracks:speed>3.989277954072586</mytracks:speed><mytracks:gradient>0.01426581980110176</mytracks:gradient><mytracks:length>0.006463274290753223</mytracks:length></extensions></trkpt><trkpt lat="33.59562364545228" lon="130.357271636656"><ele>6.034441724419594</ele><time>2025-12-20T14:33:07.99900Z</time><extensions><mytracks:speed>4.100788554215927</mytracks:speed><mytracks:gradient>0.004355454560733436</mytracks:gradient><mytracks:length>0.01727248542909413</mytracks:length></extensions></trkpt><trkpt lat="33.59560865725425" lon="130.357214826584"><ele>6.176226619137493</ele><time>2025-12-20T14:33:12.99900Z</time><extensions><mytracks:speed>3.974429166734496</mytracks:speed><mytracks:gradient>0.02568880470452273</mytracks:gradient><mytracks:length>0.005519326272620882</mytracks:length></extensions></trkpt><trkpt lat="33.59558954263644" lon="130.3571562223785"><ele>6.252913044008238</ele><time>2025-12-20T14:33:17.99800Z</time><extensions><mytracks:speed>4.198373769259699</mytracks:speed><mytracks:gradient>0.0131541414418953</mytracks:gradient><mytracks:length>0.005829831251966226</mytracks:length></extensions></trkpt><trkpt lat="33.59557289593676" lon="130.3570898235057"><ele>6.191271186165606</ele><time>2025-12-20T14:33:22.99700Z</time><extensions><mytracks:speed>4.625167597565879</mytracks:speed><mytracks:length>0.006423409534033897</mytracks:length></extensions></trkpt><trkpt lat="33.59555344029679" lon="130.3570356089997"><ele>5.639719469499275</ele><time>2025-12-20T14:33:27.99800Z</time><extensions><mytracks:speed>3.936022350686077</mytracks:speed><mytracks:length>0.005467646817713242</mytracks:length></extensions></trkpt><trkpt lat="33.59553236846884" lon="130.3569760830043"><ele>5.681935152493115</ele><time>2025-12-20T14:33:33.00200Z</time><extensions><mytracks:speed>4.30926935797017</mytracks:speed><mytracks:gradient>0.007047742261141569</mytracks:gradient><mytracks:length>0.005989958405062598</mytracks:length></extensions></trkpt><trkpt lat="33.59551510208797" lon="130.3569228449823"><ele>5.429730568150358</ele><time>2025-12-20T14:33:38.00300Z</time><extensions><mytracks:speed>3.809947265731442</mytracks:speed><mytracks:length>0.005291738131774078</mytracks:length></extensions></trkpt><trkpt lat="33.5954983197139" lon="130.356866078401"><ele>5.038413232747216</ele><time>2025-12-20T14:33:43.50200Z</time><extensions><mytracks:speed>3.651669704706454</mytracks:speed><mytracks:length>0.005578610077074348</mytracks:length></extensions></trkpt><trkpt lat="33.59548096791674" lon="130.356812510779"><ele>5.034010146062114</ele><time>2025-12-20T14:33:48.49800Z</time><extensions><mytracks:speed>3.836042012239986</mytracks:speed><mytracks:length>0.005323153459639119</mytracks:length></extensions></trkpt><trkpt lat="33.59545199107323" lon="130.3567112377683"><ele>5.070174707332803</ele><time>2025-12-20T14:33:57.75800Z</time><extensions><mytracks:speed>3.855699495191695</mytracks:speed><mytracks:gradient>0.00364639328691716</mytracks:gradient><mytracks:length>0.009917899256902209</mytracks:length></extensions></trkpt><trkpt lat="33.59537636024645" lon="130.356472005673"><ele>5.480290466919541</ele><time>2025-12-20T14:34:20.00000Z</time><extensions><mytracks:speed>3.836039941852889</mytracks:speed><mytracks:gradient>0.01730432109772013</mytracks:gradient><mytracks:length>0.02370019356845915</mytracks:length></extensions></trkpt><trkpt lat="33.59535619987773" lon="130.3564200134162"><ele>6.119285685452772</ele><time>2025-12-20T14:34:24.99900Z</time><extensions><mytracks:speed>3.824864774739577</mytracks:speed><mytracks:gradient>0.1203088905379771</mytracks:gradient><mytracks:length>0.005311288431602015</mytracks:length></extensions></trkpt><trkpt lat="33.59534213990732" lon="130.3563821079831"><ele>6.50439830779364</ele><time>2025-12-20T14:34:30.00200Z</time><extensions><mytracks:speed>2.765345593366478</mytracks:speed><mytracks:gradient>0.1002006545594876</mytracks:gradient><mytracks:length>0.00384341423750114</mytracks:length></extensions></trkpt><trkpt lat="33.59532812438134" lon="130.3563864737774"><ele>6.233312940219</ele><time>2025-12-20T14:34:35.00100Z</time><extensions><mytracks:speed>1.160361588745754</mytracks:speed><mytracks:length>0.00161110543117744</mytracks:length></extensions></trkpt><trkpt lat="33.59528162705303" lon="130.3564103907762"><ele>6.096897702550663</ele><time>2025-12-20T14:34:39.99800Z</time><extensions><mytracks:speed>4.052512768577023</mytracks:speed><mytracks:length>0.005625266893084218</mytracks:length></extensions></trkpt><trkpt lat="33.59522811330193" lon="130.3564336844"><ele>5.822455827630618</ele><time>2025-12-20T14:34:44.99900Z</time><extensions><mytracks:speed>4.556976141428336</mytracks:speed><mytracks:length>0.006330127345980598</mytracks:length></extensions></trkpt><trkpt lat="33.59517746133439" lon="130.3564294561352"><ele>6.127073517557415</ele><time>2025-12-20T14:34:49.99700Z</time><extensions><mytracks:speed>4.066234136303749</mytracks:speed><mytracks:gradient>0.05395991716830454</mytracks:gradient><mytracks:length>0.005645258664439278</mytracks:length></extensions></trkpt><trkpt lat="33.59515653491862" lon="130.3563584653092"><ele>6.794165477518551</ele><time>2025-12-20T14:34:54.99400Z</time><extensions><mytracks:speed>5.024065317756394</mytracks:speed><mytracks:gradient>0.09565815894176173</mytracks:gradient><mytracks:length>0.00697370686767318</mytracks:length></extensions></trkpt><trkpt lat="33.59511385537157" lon="130.3563028850301"><ele>7.146417821306819</ele><time>2025-12-20T14:35:00.00000Z</time><extensions><mytracks:speed>5.03511791782406</mytracks:speed><mytracks:gradient>0.05030680358284898</mytracks:gradient><mytracks:length>0.007002081601311676</mytracks:length></extensions></trkpt><trkpt lat="33.59506810326518" lon="130.3563041490288"><ele>7.836297752780886</ele><time>2025-12-20T14:35:04.99000Z</time><extensions><mytracks:speed>3.67140096571323</mytracks:speed><mytracks:gradient>0.1355744904201036</mytracks:gradient><mytracks:length>0.005088567394473264</mytracks:length></extensions></trkpt><trkpt lat="33.59504202663817" lon="130.3563201907287"><ele>8.880063872977214</ele><time>2025-12-20T14:35:09.99000Z</time><extensions><mytracks:speed>2.345925252504657</mytracks:speed><mytracks:gradient>0.3203338495820746</mytracks:gradient><mytracks:length>0.003258369733820149</mytracks:length></extensions></trkpt><trkpt lat="33.59499417584285" lon="130.3563244015866"><ele>8.441091048726019</ele><time>2025-12-20T14:35:14.95300Z</time><extensions><mytracks:speed>3.86933927222307</mytracks:speed><mytracks:length>0.005334147354101361</mytracks:length></extensions></trkpt><trkpt lat="33.5949220902524" lon="130.3563590386854"><ele>9.040633244200727</ele><time>2025-12-20T14:35:19.93900Z</time><extensions><mytracks:speed>6.233680531581247</mytracks:speed><mytracks:gradient>0.06944052980820946</mytracks:gradient><mytracks:length>0.008633894314035438</mytracks:length></extensions></trkpt><trkpt lat="33.59483124829618" lon="130.3564058228567"><ele>8.721386049182398</ele><time>2025-12-20T14:35:24.99500Z</time><extensions><mytracks:speed>7.826591007764648</mytracks:speed><mytracks:length>0.01099160535466076</mytracks:length></extensions></trkpt><trkpt lat="33.59463144160637" lon="130.3563069780309"><ele>8.267961731830171</ele><time>2025-12-20T14:36:09.71700Z</time><extensions><mytracks:speed>1.93435350462323</mytracks:speed><mytracks:length>0.02403007242914352</mytracks:length></extensions></trkpt><trkpt lat="33.59357474099509" lon="130.3555617141651"><ele>5.271680566482246</ele><time>2025-12-20T14:40:35.00000Z</time><extensions><mytracks:speed>1.849318496192974</mytracks:speed><mytracks:length>0.1362759084138049</mytracks:length></extensions></trkpt><trkpt lat="33.59341148425876" lon="130.355435750828"><ele>4.376342226751149</ele><time>2025-12-20T14:40:52.00000Z</time><extensions><mytracks:speed>4.569770165699508</mytracks:speed><mytracks:length>0.02157935915659593</mytracks:length></extensions></trkpt><trkpt lat="33.59336052742632" lon="130.3554288622728"><ele>3.743517086805539</ele><time>2025-12-20T14:40:57.01800Z</time><extensions><mytracks:speed>4.091066798223028</mytracks:speed><mytracks:length>0.005702443385604034</mytracks:length></extensions></trkpt><trkpt lat="33.59330033250352" lon="130.3554316116793"><ele>3.338518972682185</ele><time>2025-12-20T14:41:02.01000Z</time><extensions><mytracks:speed>4.83043325108537</mytracks:speed><mytracks:length>0.006698827290852902</mytracks:length></extensions></trkpt><trkpt lat="33.59322674790487" lon="130.3554658298263"><ele>3.669826106012543</ele><time>2025-12-20T14:41:07.93600Z</time><extensions><mytracks:speed>5.330909769754106</mytracks:speed><mytracks:gradient>0.03775482391149653</mytracks:gradient><mytracks:length>0.00877522655401587</mytracks:length></extensions></trkpt><trkpt lat="33.59314892335119" lon="130.3555021426277"><ele>3.670971914027597</ele><time>2025-12-20T14:41:14.59700Z</time><extensions><mytracks:speed>5.017818963365809</mytracks:speed><mytracks:gradient>0.0001234204314156144</mytracks:gradient><mytracks:length>0.009283779046239745</mytracks:length></extensions></trkpt><trkpt lat="33.59308555953644" lon="130.3555282895149"><ele>3.987378493641415</ele><time>2025-12-20T14:41:19.96000Z</time><extensions><mytracks:speed>5.001381170883953</mytracks:speed><mytracks:gradient>0.04246808580166756</mytracks:gradient><mytracks:length>0.007450455410010355</mytracks:length></extensions></trkpt><trkpt lat="33.593025947815" lon="130.3555517794228"><ele>3.665133655881303</ele><time>2025-12-20T14:41:24.96700Z</time><extensions><mytracks:speed>5.014843329704409</mytracks:speed><mytracks:length>0.006975645175081068</mytracks:length></extensions></trkpt><trkpt lat="33.59296276869083" lon="130.3555914708111"><ele>4.47145621640616</ele><time>2025-12-20T14:41:29.97400Z</time><extensions><mytracks:speed>5.701365305825861</mytracks:speed><mytracks:gradient>0.1016971980684644</mytracks:gradient><mytracks:length>0.007928660531846961</mytracks:length></extensions></trkpt><trkpt lat="33.59290476790126" lon="130.3556248332213"><ele>4.109749461360393</ele><time>2025-12-20T14:41:34.97900Z</time><extensions><mytracks:speed>5.143372081718591</mytracks:speed><mytracks:length>0.007151092299684229</mytracks:length></extensions></trkpt><trkpt lat="33.59284287502537" lon="130.3556440215578"><ele>4.34255385705464</ele><time>2025-12-20T14:41:39.98300Z</time><extensions><mytracks:speed>5.113456628874868</mytracks:speed><mytracks:gradient>0.03275193109660363</mytracks:gradient><mytracks:length>0.007108112037961288</mytracks:length></extensions></trkpt><trkpt lat="33.59279575111146" lon="130.3556704451236"><ele>4.449582010002411</ele><time>2025-12-20T14:41:44.98700Z</time><extensions><mytracks:speed>4.160518337608781</mytracks:speed><mytracks:gradient>0.01850901715600207</mytracks:gradient><mytracks:length>0.0057824871005138</mytracks:length></extensions></trkpt><trkpt lat="33.59274263183996" lon="130.3557007918016"><ele>4.506262612097593</ele><time>2025-12-20T14:41:49.98900Z</time><extensions><mytracks:speed>4.706853022977937</mytracks:speed><mytracks:gradient>0.008665569729415731</mytracks:gradient><mytracks:length>0.006540897351824127</mytracks:length></extensions></trkpt><trkpt lat="33.59265992844429" lon="130.3557583514836"><ele>4.010179679339788</ele><time>2025-12-20T14:41:54.99200Z</time><extensions><mytracks:speed>7.650108479859009</mytracks:speed><mytracks:length>0.0106297862301316</mytracks:length></extensions></trkpt><trkpt lat="33.59257361455628" lon="130.3557577372151"><ele>4.371660053509161</ele><time>2025-12-20T14:41:59.99300Z</time><extensions><mytracks:speed>6.908087350709093</mytracks:speed><mytracks:gradient>0.0376626011607093</mytracks:gradient><mytracks:length>0.009597860026366945</mytracks:length></extensions></trkpt><trkpt lat="33.59249618928764" lon="130.3557506221044"><ele>4.202547255730744</ele><time>2025-12-20T14:42:04.99500Z</time><extensions><mytracks:speed>6.215109407726899</mytracks:speed><mytracks:length>0.008634416236013491</mytracks:length></extensions></trkpt><trkpt lat="33.59242018967845" lon="130.355753183284"><ele>3.62350418363615</ele><time>2025-12-20T14:42:10.49800Z</time><extensions><mytracks:speed>5.529824899224828</mytracks:speed><mytracks:length>0.008453507197156034</mytracks:length></extensions></trkpt><trkpt lat="33.59236257688189" lon="130.3557642785852"><ele>3.85865824639506</ele><time>2025-12-20T14:42:15.99800Z</time><extensions><mytracks:speed>4.247294967848767</mytracks:speed><mytracks:gradient>0.03624264081744349</mytracks:gradient><mytracks:length>0.006488325835399131</mytracks:length></extensions></trkpt><trkpt lat="33.5923033394853" lon="130.3557982248061"><ele>4.240556374335613</ele><time>2025-12-20T14:42:20.99800Z</time><extensions><mytracks:speed>5.254587958422249</mytracks:speed><mytracks:gradient>0.05232260184180385</mytracks:gradient><mytracks:length>0.007298913175136308</mytracks:length></extensions></trkpt><trkpt lat="33.59224204956731" lon="130.3558446321264"><ele>5.080728506227273</ele><time>2025-12-20T14:42:25.99900Z</time><extensions><mytracks:speed>5.801091969014964</mytracks:speed><mytracks:gradient>0.1042686383754732</mytracks:gradient><mytracks:length>0.008057764491621976</mytracks:length></extensions></trkpt><trkpt lat="33.59218489962032" lon="130.3558816747678"><ele>5.01321890439351</ele><time>2025-12-20T14:42:30.99900Z</time><extensions><mytracks:speed>5.199473785357093</mytracks:speed><mytracks:length>0.007221949695130209</mytracks:length></extensions></trkpt><trkpt lat="33.5921260622206" lon="130.3559386044308"><ele>5.18441278568104</ele><time>2025-12-20T14:42:35.99900Z</time><extensions><mytracks:speed>6.049274755026212</mytracks:speed><mytracks:gradient>0.02037494556979543</mytracks:gradient><mytracks:length>0.008402176128573999</mytracks:length></extensions></trkpt><trkpt lat="33.59206855551896" lon="130.355984932213"><ele>6.174425649346203</ele><time>2025-12-20T14:42:40.99900Z</time><extensions><mytracks:speed>5.544435554551351</mytracks:speed><mytracks:gradient>0.1285583154271785</mytracks:gradient><mytracks:length>0.007700885472678371</mytracks:length></extensions></trkpt><trkpt lat="33.59201637939097" lon="130.3560073352599"><ele>7.496694076095545</ele><time>2025-12-20T14:42:45.99900Z</time><extensions><mytracks:speed>4.436011613853146</mytracks:speed><mytracks:gradient>0.2146089001593577</mytracks:gradient><mytracks:length>0.006161293524022035</mytracks:length></extensions></trkpt><trkpt lat="33.59196865704012" lon="130.3560240865397"><ele>6.296448762799442</ele><time>2025-12-20T14:42:51.00000Z</time><extensions><mytracks:speed>3.980884081409356</mytracks:speed><mytracks:length>0.005529115212512927</mytracks:length></extensions></trkpt><trkpt lat="33.59192344111105" lon="130.3560610243585"><ele>6.516881280162009</ele><time>2025-12-20T14:42:56.00000Z</time><extensions><mytracks:speed>4.378827043505797</mytracks:speed><mytracks:gradient>0.03624467972684219</mytracks:gradient><mytracks:length>0.006081789631577796</mytracks:length></extensions></trkpt><trkpt lat="33.59189418780847" lon="130.3560895523665"><ele>5.427540682882464</ele><time>2025-12-20T14:43:01.00000Z</time><extensions><mytracks:speed>3.016827630398666</mytracks:speed><mytracks:length>0.004190078834365036</mytracks:length></extensions></trkpt><trkpt lat="33.59186272873949" lon="130.3561265267236"><ele>5.504814261358826</ele><time>2025-12-20T14:43:06.00000Z</time><extensions><mytracks:speed>3.525318340654321</mytracks:speed><mytracks:gradient>0.015782016329249</mytracks:gradient><mytracks:length>0.004896305824570073</mytracks:length></extensions></trkpt><trkpt lat="33.59182511289394" lon="130.3561099227767"><ele>7.183326176043086</ele><time>2025-12-20T14:43:11.00000Z</time><extensions><mytracks:speed>3.208309550842269</mytracks:speed><mytracks:gradient>0.3766946584949657</mytracks:gradient><mytracks:length>0.004455895184154018</mytracks:length></extensions></trkpt><trkpt lat="33.59178621060019" lon="130.355930520502"><ele>7.401216055635877</ele><time>2025-12-20T14:43:16.06100Z</time><extensions><mytracks:speed>12.21357936613369</mytracks:speed><mytracks:gradient>0.01268944174751378</mytracks:gradient><mytracks:length>0.01717095865430658</mytracks:length></extensions></trkpt><trkpt lat="33.59171612238151" lon="130.3557684852258"><ele>7.222165826173603</ele><time>2025-12-20T14:43:22.16300Z</time><extensions><mytracks:speed>9.976392327430052</mytracks:speed><mytracks:length>0.01691154492685986</mytracks:length></extensions></trkpt><trkpt lat="33.59162439014145" lon="130.3556778276673"><ele>9.430916842089603</ele><time>2025-12-20T14:43:28.00000Z</time><extensions><mytracks:speed>8.149421060044732</mytracks:speed><mytracks:gradient>0.1671770495438319</mytracks:gradient><mytracks:length>0.01321204688049534</mytracks:length></extensions></trkpt><trkpt lat="33.59163300284531" lon="130.3555939763425"><ele>9.183113681505992</ele><time>2025-12-20T14:43:33.06900Z</time><extensions><mytracks:speed>5.558186050867355</mytracks:speed><mytracks:length>0.007826262364378434</mytracks:length></extensions></trkpt><trkpt lat="33.59162145791336" lon="130.3555321779818"><ele>8.474676785733854</ele><time>2025-12-20T14:43:39.00000Z</time><extensions><mytracks:speed>3.561090831529692</mytracks:speed><mytracks:length>0.005866817071018753</mytracks:length></extensions></trkpt><trkpt lat="33.59158904626802" lon="130.3555521277263"><ele>8.212630142296643</ele><time>2025-12-20T14:43:44.00000Z</time><extensions><mytracks:speed>2.916874436530202</mytracks:speed><mytracks:length>0.004051190734414668</mytracks:length></extensions></trkpt><trkpt lat="33.59154053772092" lon="130.3555279602768"><ele>7.974661123818767</ele><time>2025-12-20T14:43:50.61500Z</time><extensions><mytracks:speed>3.178050867384094</mytracks:speed><mytracks:length>0.005839871374165764</mytracks:length></extensions></trkpt><trkpt lat="33.59152189972274" lon="130.3555301852322"><ele>7.968071643592325</ele><time>2025-12-20T14:43:55.69600Z</time><extensions><mytracks:speed>1.475126010576675</mytracks:speed><mytracks:length>0.002082093632560501</mytracks:length></extensions></trkpt><trkpt lat="33.59156241725517" lon="130.3555562855046"><ele>7.807268074713647</ele><time>2025-12-20T14:44:58.99900Z</time><extensions><mytracks:speed>0.2907900024976695</mytracks:speed><mytracks:length>0.005113303631752516</mytracks:length></extensions></trkpt><trkpt lat="33.59154658644493" lon="130.3555975420884"><ele>7.409469513424783</ele><time>2025-12-20T14:45:04.00000Z</time><extensions><mytracks:speed>3.02845778269248</mytracks:speed><mytracks:length>0.004207251360566916</mytracks:length></extensions></trkpt><trkpt lat="33.59156853506655" lon="130.3556180132133"><ele>7.4302955230697</ele><time>2025-12-20T14:45:09.87200Z</time><extensions><mytracks:speed>1.895055465758393</mytracks:speed><mytracks:gradient>0.006737913243075368</mytracks:gradient><mytracks:length>0.003090869367651708</mytracks:length></extensions></trkpt><trkpt lat="33.59172428221312" lon="130.3556355124655"><ele>6.50511172786355</ele><time>2025-12-20T14:45:17.00000Z</time><extensions><mytracks:speed>8.784579234726339</mytracks:speed><mytracks:length>0.01739389803470817</mytracks:length></extensions></trkpt><trkpt lat="33.59173911419602" lon="130.3557206481776"><ele>6.470423872779431</ele><time>2025-12-20T14:45:22.00800Z</time><extensions><mytracks:speed>5.791507617461695</mytracks:speed><mytracks:length>0.008056086548073096</mytracks:length></extensions></trkpt><trkpt lat="33.59176504315523" lon="130.3556856602466"><ele>6.21159888766706</ele><time>2025-12-20T14:45:27.00000Z</time><extensions><mytracks:speed>3.128276984506068</mytracks:speed><mytracks:length>0.004338034134280077</mytracks:length></extensions></trkpt><trkpt lat="33.59177460647508" lon="130.3557181705261"><ele>5.790866686834408</ele><time>2025-12-20T17:36:42.66700Z</time><extensions><mytracks:speed>0.001119034378504973</mytracks:speed><mytracks:length>0.003194117816468274</mytracks:length></extensions></trkpt><trkpt lat="33.59181558342723" lon="130.3558819701377"><ele>3.504550606012344</ele><time>2025-12-21T07:52:52.00000Z</time><extensions><mytracks:speed>0.001110196627388801</mytracks:speed><mytracks:length>0.01584168337719112</mytracks:length></extensions></trkpt><trkpt lat="33.59180279968127" lon="130.3558548048626"><ele>4.012138958554157</ele><time>2025-12-21T07:52:57.50000Z</time><extensions><mytracks:speed>1.890886470286192</mytracks:speed><mytracks:gradient>0.175702700597513</mytracks:gradient><mytracks:length>0.002888904671445884</mytracks:length></extensions></trkpt><trkpt lat="33.5917877393646" lon="130.3558902552125"><ele>3.869665054199643</ele><time>2025-12-21T07:53:02.50000Z</time><extensions><mytracks:speed>2.653456762502192</mytracks:speed><mytracks:length>0.003685397560025297</mytracks:length></extensions></trkpt><trkpt lat="33.59179523247808" lon="130.3558670725461"><ele>3.949782706795241</ele><time>2025-12-21T07:53:07.50000Z</time><extensions><mytracks:speed>1.657471427653668</mytracks:speed><mytracks:gradient>0.03480261164629748</mytracks:gradient><mytracks:length>0.002302058633123327</mytracks:length></extensions></trkpt><trkpt lat="33.59179003073655" lon="130.3558795869083"><ele>3.79887618055989</ele><time>2025-12-21T07:53:12.50000Z</time><extensions><mytracks:speed>0.9322131754476809</mytracks:speed><mytracks:length>0.001294744843117849</mytracks:length></extensions></trkpt><trkpt lat="33.59180681967731" lon="130.3558570146097"><ele>3.952509230009703</ele><time>2025-12-21T07:53:17.50000Z</time><extensions><mytracks:speed>2.01729237287896</mytracks:speed><mytracks:gradient>0.05483373837517456</mytracks:gradient><mytracks:length>0.002801797834731777</mytracks:length></extensions></trkpt><trkpt lat="33.59180518540734" lon="130.3558806892555"><ele>3.834313124798895</ele><time>2025-12-21T07:53:23.00000Z</time><extensions><mytracks:speed>1.438633748194448</mytracks:speed><mytracks:length>0.002197911051144507</mytracks:length></extensions></trkpt><trkpt lat="33.59180507054901" lon="130.3558763781269"><ele>4.463064601703561</ele><time>2025-12-21T07:53:29.31300Z</time><extensions><mytracks:speed>0.2165579983422488</mytracks:speed><mytracks:gradient>1.655736829123936</mytracks:gradient><mytracks:length>0.0003797411918640138</mytracks:length></extensions></trkpt><trkpt lat="33.59181281705437" lon="130.3559267295109"><ele>5.017881312920403</ele><time>2025-12-21T07:53:34.58200Z</time><extensions><mytracks:speed>3.240823005028385</mytracks:speed><mytracks:gradient>0.1169533172673666</mytracks:gradient><mytracks:length>0.004743915984430583</mytracks:length></extensions></trkpt><trkpt lat="33.59185524664744" lon="130.355969706379"><ele>5.422504651038232</ele><time>2025-12-21T07:53:40.00000Z</time><extensions><mytracks:speed>4.101984887184869</mytracks:speed><mytracks:gradient>0.06554743801372488</mytracks:gradient><mytracks:length>0.006172984793594926</mytracks:length></extensions></trkpt><trkpt lat="33.59191934942196" lon="130.3559395772834"><ele>5.603492443616307</ele><time>2025-12-21T07:53:45.00000Z</time><extensions><mytracks:speed>5.511698553726003</mytracks:speed><mytracks:gradient>0.02364275505174255</mytracks:gradient><mytracks:length>0.00765510585301842</mytracks:length></extensions></trkpt><trkpt lat="33.59191099938124" lon="130.3558778771509"><ele>5.63636126921125</ele><time>2025-12-21T07:53:50.00000Z</time><extensions><mytracks:speed>4.16901695997763</mytracks:speed><mytracks:gradient>0.005676556949544369</mytracks:gradient><mytracks:length>0.00579027496545781</mytracks:length></extensions></trkpt><trkpt lat="33.59188599589584" lon="130.3557963595087"><ele>5.435897899269012</ele><time>2025-12-21T07:53:55.00000Z</time><extensions><mytracks:speed>5.793154688467266</mytracks:speed><mytracks:length>0.008046011538373914</mytracks:length></extensions></trkpt><trkpt lat="33.59186040923876" lon="130.3557260841554"><ele>5.612158759352727</ele><time>2025-12-21T07:54:00.00000Z</time><extensions><mytracks:speed>5.115125315071452</mytracks:speed><mytracks:gradient>0.0248104221379243</mytracks:gradient><mytracks:length>0.007104307178002005</mytracks:length></extensions></trkpt><trkpt lat="33.59183562810555" lon="130.3556582917014"><ele>5.753060862148387</ele><time>2025-12-21T07:54:05.00000Z</time><extensions><mytracks:speed>4.937109098386768</mytracks:speed><mytracks:gradient>0.02054846279067377</mytracks:gradient><mytracks:length>0.006857062945828248</mytracks:length></extensions></trkpt><trkpt lat="33.59180793736567" lon="130.355595989176"><ele>6.458111392106515</ele><time>2025-12-21T07:54:10.00000Z</time><extensions><mytracks:speed>4.709469672639792</mytracks:speed><mytracks:gradient>0.1077911014398511</mytracks:gradient><mytracks:length>0.006540897351824127</mytracks:length></extensions></trkpt><trkpt lat="33.59179442250785" lon="130.3555138035059"><ele>6.89654174000935</ele><time>2025-12-21T07:54:15.00000Z</time><extensions><mytracks:speed>5.587057555002951</mytracks:speed><mytracks:gradient>0.05650048221902595</mytracks:gradient><mytracks:length>0.007759762938009014</mytracks:length></extensions></trkpt><trkpt lat="33.59178253061278" lon="130.3554655596691"><ele>6.777842660822769</ele><time>2025-12-21T07:54:20.00100Z</time><extensions><mytracks:speed>3.354947689755866</mytracks:speed><mytracks:length>0.004660539993149415</mytracks:length></extensions></trkpt><trkpt lat="33.59176509053258" lon="130.3555068632184"><ele>7.148885621274086</ele><time>2025-12-21T07:54:25.00000Z</time><extensions><mytracks:speed>3.088093897966619</mytracks:speed><mytracks:gradient>0.08651172590305048</mytracks:gradient><mytracks:length>0.004288932587787321</mytracks:length></extensions></trkpt><trkpt lat="33.59175214301615" lon="130.3555152850729"><ele>7.123078946408548</ele><time>2025-12-21T07:54:30.00000Z</time><extensions><mytracks:speed>1.179984798538977</mytracks:speed><mytracks:length>0.001638837337373171</mytracks:length></extensions></trkpt><trkpt lat="33.59172148175054" lon="130.3555326133788"><ele>7.117068738752702</ele><time>2025-12-21T07:54:35.00000Z</time><extensions><mytracks:speed>2.712751156649786</mytracks:speed><mytracks:length>0.003767627835897971</mytracks:length></extensions></trkpt><trkpt lat="33.59166962326518" lon="130.3556012882222"><ele>7.415520646307248</ele><time>2025-12-21T07:54:40.40700Z</time><extensions><mytracks:speed>5.715878476251845</mytracks:speed><mytracks:gradient>0.0347634674388829</mytracks:gradient><mytracks:length>0.008585216882615317</mytracks:length></extensions></trkpt><trkpt lat="33.59168181394291" lon="130.35563232148"><ele>7.088744945537806</ele><time>2025-12-21T07:54:56.09900Z</time><extensions><mytracks:speed>0.7289017170024328</mytracks:speed><mytracks:length>0.003177142756610305</mytracks:length></extensions></trkpt><trkpt lat="33.59171934204117" lon="130.3557889818439"><ele>5.787389926612377</ele><time>2025-12-21T07:55:58.99900Z</time><extensions><mytracks:speed>0.864162123320191</mytracks:speed><mytracks:length>0.01509889133954615</mytracks:length></extensions></trkpt><trkpt lat="33.59176116866244" lon="130.3557835805545"><ele>5.60742576084992</ele><time>2025-12-21T07:56:03.99900Z</time><extensions><mytracks:speed>3.36742859247681</mytracks:speed><mytracks:length>0.004676948696676431</mytracks:length></extensions></trkpt><trkpt lat="33.59184405800831" lon="130.3557090994204"><ele>5.735855196602643</ele><time>2025-12-21T07:56:35.99900Z</time><extensions><mytracks:speed>1.295138070798677</mytracks:speed><mytracks:gradient>0.01115589305455767</mytracks:gradient><mytracks:length>0.01151225053204086</mytracks:length></extensions></trkpt><trkpt lat="33.59179702862917" lon="130.3557775738859"><ele>5.662567008207371</ele><time>2025-12-21T07:56:41.57000Z</time><extensions><mytracks:speed>5.31170820998372</mytracks:speed><mytracks:length>0.008219993483380239</mytracks:length></extensions></trkpt><trkpt lat="33.59182409540846" lon="130.355737296253"><ele>5.585050650027403</ele><time>2025-12-21T07:56:46.86100Z</time><extensions><mytracks:speed>3.26157373903612</mytracks:speed><mytracks:length>0.004793057461467629</mytracks:length></extensions></trkpt><trkpt lat="33.59180543055744" lon="130.3558006875537"><ele>4.577019599651403</ele><time>2025-12-21T07:57:08.16200Z</time><extensions><mytracks:speed>1.052322128441437</mytracks:speed><mytracks:length>0.006226771383401389</mytracks:length></extensions></trkpt><trkpt lat="33.59181106316858" lon="130.3558375211317"><ele>3.916637383401394</ele><time>2025-12-21T07:57:24.00000Z</time><extensions><mytracks:speed>0.7884736411316202</mytracks:speed><mytracks:length>0.003468712861834861</mytracks:length></extensions></trkpt><trkpt lat="33.59178840251214" lon="130.3558661562932"><ele>3.818303713692965</ele><time>2025-12-21T07:57:29.00000Z</time><extensions><mytracks:speed>2.634072835462846</mytracks:speed><mytracks:length>0.003658397946894616</mytracks:length></extensions></trkpt><trkpt lat="33.59179859654758" lon="130.3558699796619"><ele>4.087093611241271</ele><time>2025-12-21T07:57:34.00000Z</time><extensions><mytracks:speed>0.8564742014690998</mytracks:speed><mytracks:gradient>0.2259619935964364</mytracks:gradient><mytracks:length>0.001189535874021183</mytracks:length></extensions></trkpt><trkpt lat="33.59180478614074" lon="130.3558799917798"><ele>3.625701854005047</ele><time>2025-12-21T07:57:39.00000Z</time><extensions><mytracks:speed>0.8287490905272906</mytracks:speed><mytracks:length>0.001151029316561659</mytracks:length></extensions></trkpt><trkpt lat="33.59180410420723" lon="130.355874817504"><ele>3.752421575411782</ele><time>2025-12-21T07:57:44.00000Z</time><extensions><mytracks:speed>0.3485386519824604</mytracks:speed><mytracks:gradient>0.2617759941826465</mytracks:gradient><mytracks:length>0.000484076936857397</mytracks:length></extensions></trkpt><trkpt lat="33.59179780820142" lon="130.3558750853323"><ele>3.488232560627341</ele><time>2025-12-21T07:57:49.00000Z</time><extensions><mytracks:speed>0.5115147998739783</mytracks:speed><mytracks:length>0.0007104307178001641</mytracks:length></extensions></trkpt><trkpt lat="33.59182380774957" lon="130.3558783319194"><ele>3.333156819879337</ele><time>2025-12-21T07:57:54.06000Z</time><extensions><mytracks:speed>2.067430952317167</mytracks:speed><mytracks:length>0.002906012735605384</mytracks:length></extensions></trkpt><trkpt lat="33.59181763332346" lon="130.3558322965108"><ele>4.498617474772596</ele><time>2025-12-21T07:58:00.77300Z</time><extensions><mytracks:speed>2.316166738237386</mytracks:speed><mytracks:gradient>0.2698265783161291</mytracks:gradient><mytracks:length>0.004319295238320829</mytracks:length></extensions></trkpt><trkpt lat="33.59182248357329" lon="130.3558580738121"><ele>5.051098405881569</ele><time>2025-12-21T07:58:06.02600Z</time><extensions><mytracks:speed>1.677758775399345</mytracks:speed><mytracks:gradient>0.2256725584160154</mytracks:gradient><mytracks:length>0.002448152912284992</mytracks:length></extensions></trkpt><trkpt lat="33.59185210354003" lon="130.3559697259483"><ele>5.283059261012977</ele><time>2025-12-21T07:58:10.99900Z</time><extensions><mytracks:speed>7.857332529987874</mytracks:speed><mytracks:gradient>0.02137056300278404</mytracks:gradient><mytracks:length>0.01085422293746728</mytracks:length></extensions></trkpt><trkpt lat="33.59189793566092" lon="130.3559306151052"><ele>5.351264845003616</ele><time>2025-12-21T07:58:15.99900Z</time><extensions><mytracks:speed>4.502035578203884</mytracks:speed><mytracks:gradient>0.0109080580413655</mytracks:gradient><mytracks:length>0.00625277054192321</mytracks:length></extensions></trkpt><trkpt lat="33.591889560208" lon="130.3558534274226"><ele>5.371466959414213</ele><time>2025-12-21T07:58:20.99900Z</time><extensions><mytracks:speed>5.191306752602753</mytracks:speed><mytracks:gradient>0.002801924847960198</mytracks:gradient><mytracks:length>0.007210084319464876</mytracks:length></extensions></trkpt><trkpt lat="33.59186059125222" lon="130.3557846757733"><ele>5.448783623055909</ele><time>2025-12-21T07:58:25.99900Z</time><extensions><mytracks:speed>5.138386786757622</mytracks:speed><mytracks:gradient>0.01083384788969793</mytracks:gradient><mytracks:length>0.007136583827729167</mytracks:length></extensions></trkpt><trkpt lat="33.59183252819514" lon="130.3557189186961"><ele>5.480005876718702</ele><time>2025-12-21T07:58:30.99900Z</time><extensions><mytracks:speed>4.927657068775148</mytracks:speed><mytracks:gradient>0.004562051373353982</mytracks:gradient><mytracks:length>0.006843906634887187</mytracks:length></extensions></trkpt><trkpt lat="33.59181018234333" lon="130.3556569293795"><ele>5.685742853753061</ele><time>2025-12-21T07:58:35.99900Z</time><extensions><mytracks:speed>4.504628935522016</mytracks:speed><mytracks:gradient>0.03288438482273438</mytracks:gradient><mytracks:length>0.006256372991114112</mytracks:length></extensions></trkpt><trkpt lat="33.59179036566844" lon="130.3555830864434"><ele>6.079100130724258</ele><time>2025-12-21T07:58:40.99900Z</time><extensions><mytracks:speed>5.173726994600465</mytracks:speed><mytracks:gradient>0.05474192432204587</mytracks:gradient><mytracks:length>0.007185667691495158</mytracks:length></extensions></trkpt><trkpt lat="33.59177185706385" lon="130.3555095581773"><ele>6.769387304620194</ele><time>2025-12-21T07:58:46.50000Z</time><extensions><mytracks:speed>4.655647392288568</mytracks:speed><mytracks:gradient>0.09703473089982881</mytracks:gradient><mytracks:length>0.007113815512185373</mytracks:length></extensions></trkpt><trkpt lat="33.59175000064911" lon="130.3554365046765"><ele>6.674828504493972</ele><time>2025-12-21T07:58:52.00000Z</time><extensions><mytracks:speed>4.705589421064747</mytracks:speed><mytracks:length>0.007189429493179325</mytracks:length></extensions></trkpt><trkpt lat="33.59174045033971" lon="130.3553656471387"><ele>6.64793998555417</ele><time>2025-12-21T07:58:57.00000Z</time><extensions><mytracks:speed>4.786718735363986</mytracks:speed><mytracks:length>0.006648182741372522</mytracks:length></extensions></trkpt><trkpt lat="33.5917089454266" lon="130.3552956663959"><ele>7.521440471303031</ele><time>2025-12-21T07:59:02.00000Z</time><extensions><mytracks:speed>5.304823297423545</mytracks:speed><mytracks:gradient>0.1185574914225037</mytracks:gradient><mytracks:length>0.007367737586787867</mytracks:length></extensions></trkpt><trkpt lat="33.59167866263977" lon="130.3552236772719"><ele>7.829969167551692</ele><time>2025-12-21T07:59:07.00000Z</time><extensions><mytracks:speed>5.37831594843513</mytracks:speed><mytracks:gradient>0.04130355605776828</mytracks:gradient><mytracks:length>0.007469785308973026</mytracks:length></extensions></trkpt><trkpt lat="33.59164222593297" lon="130.355153419772"><ele>7.580917195130367</ele><time>2025-12-21T07:59:12.00000Z</time><extensions><mytracks:speed>5.518520400680548</mytracks:speed><mytracks:length>0.007664518836412056</mytracks:length></extensions></trkpt><trkpt lat="33.59160554150071" lon="130.3550846003434"><ele>7.311510532092739</ele><time>2025-12-21T07:59:17.00000Z</time><extensions><mytracks:speed>5.448647692597882</mytracks:speed><mytracks:length>0.00756748071834559</mytracks:length></extensions></trkpt><trkpt lat="33.59159802976428" lon="130.355000562357"><ele>6.996903884180952</ele><time>2025-12-21T07:59:22.00000Z</time><extensions><mytracks:speed>5.636628240818589</mytracks:speed><mytracks:length>0.007828565222266843</mytracks:length></extensions></trkpt><trkpt lat="33.59160670491205" lon="130.3549228310718"><ele>7.366748025133231</ele><time>2025-12-21T07:59:27.00000Z</time><extensions><mytracks:speed>5.22987258779747</mytracks:speed><mytracks:gradient>0.05091721792771885</mytracks:gradient><mytracks:length>0.007263636074486685</mytracks:length></extensions></trkpt><trkpt lat="33.59162797672519" lon="130.3548586675238"><ele>7.491977124409591</ele><time>2025-12-21T07:59:32.00000Z</time><extensions><mytracks:speed>4.605159814370564</mytracks:speed><mytracks:gradient>0.01957931293271411</mytracks:gradient><mytracks:length>0.006395990487854218</mytracks:length></extensions></trkpt><trkpt lat="33.59164219355026" lon="130.3547919210618"><ele>7.889920528822004</ele><time>2025-12-21T07:59:37.00000Z</time><extensions><mytracks:speed>4.594493650724663</mytracks:speed><mytracks:gradient>0.06236206389825692</mytracks:gradient><mytracks:length>0.006381177586772196</mytracks:length></extensions></trkpt><trkpt lat="33.59164111441004" lon="130.3547289759965"><ele>8.53557741747297</ele><time>2025-12-21T07:59:42.00000Z</time><extensions><mytracks:speed>4.198632990973814</mytracks:speed><mytracks:gradient>0.1107211705569751</mytracks:gradient><mytracks:length>0.005831377011307181</mytracks:length></extensions></trkpt><trkpt lat="33.59162264339347" lon="130.3546636727587"><ele>7.460333535313815</ele><time>2025-12-21T07:59:47.00000Z</time><extensions><mytracks:speed>4.598558369073132</mytracks:speed><mytracks:length>0.00638682464768863</mytracks:length></extensions></trkpt><trkpt lat="33.59160109830453" lon="130.3545960579262"><ele>7.214913146767129</ele><time>2025-12-21T07:59:52.00000Z</time><extensions><mytracks:speed>4.827559329395666</mytracks:speed><mytracks:length>0.006704878930292081</mytracks:length></extensions></trkpt><trkpt lat="33.59158737601395" lon="130.3545214830244"><ele>7.622950441362347</ele><time>2025-12-21T07:59:56.99900Z</time><extensions><mytracks:speed>5.093180943405369</mytracks:speed><mytracks:gradient>0.05768294336657029</mytracks:gradient><mytracks:length>0.007073794622479211</mytracks:length></extensions></trkpt><trkpt lat="33.59157851787459" lon="130.3544408529366"><ele>7.855725752419921</ele><time>2025-12-21T08:00:01.99900Z</time><extensions><mytracks:speed>5.423712673374191</mytracks:speed><mytracks:gradient>0.0309013062504158</mytracks:gradient><mytracks:length>0.007532863147312469</mytracks:length></extensions></trkpt><trkpt lat="33.59156118417315" lon="130.3543626519688"><ele>8.05780581849552</ele><time>2025-12-21T08:00:06.99900Z</time><extensions><mytracks:speed>5.396508785248046</mytracks:speed><mytracks:gradient>0.02696169515226176</mytracks:gradient><mytracks:length>0.007495080147386341</mytracks:length></extensions></trkpt><trkpt lat="33.59154369569213" lon="130.3542827380815"><ele>7.981922177408787</ele><time>2025-12-21T08:00:11.99900Z</time><extensions><mytracks:speed>5.510457479386458</mytracks:speed><mytracks:length>0.007653339629764068</mytracks:length></extensions></trkpt><trkpt lat="33.59154494365852" lon="130.354196328831"><ele>7.835865845487405</ele><time>2025-12-21T08:00:16.99900Z</time><extensions><mytracks:speed>5.764075272283783</mytracks:speed><mytracks:length>0.008005584706818961</mytracks:length></extensions></trkpt><trkpt lat="33.59154149629709" lon="130.3541208113362"><ele>7.935174749446687</ele><time>2025-12-21T08:00:21.99900Z</time><extensions><mytracks:speed>5.044325850415603</mytracks:speed><mytracks:gradient>0.01417495381118023</mytracks:gradient><mytracks:length>0.007005941979222129</mytracks:length></extensions></trkpt><trkpt lat="33.59153790153027" lon="130.3540374982425"><ele>8.737192900742395</ele><time>2025-12-21T08:00:26.99900Z</time><extensions><mytracks:speed>5.563617389975572</mytracks:speed><mytracks:gradient>0.1037919181819063</mytracks:gradient><mytracks:length>0.007727173419129669</mytracks:length></extensions></trkpt><trkpt lat="33.59153383260049" lon="130.3539473313494"><ele>8.183573375914728</ele><time>2025-12-21T08:00:31.99900Z</time><extensions><mytracks:speed>6.0225318812983</mytracks:speed><mytracks:length>0.00836454863932215</mytracks:length></extensions></trkpt><trkpt lat="33.59151523778016" lon="130.3538661533927"><ele>7.857292427513785</ele><time>2025-12-21T08:00:36.99900Z</time><extensions><mytracks:speed>5.614610833735656</mytracks:speed><mytracks:length>0.007797997163816579</mytracks:length></extensions></trkpt><trkpt lat="33.59145177129326" lon="130.3538129986981"><ele>8.215840331938324</ele><time>2025-12-21T08:00:42.06000Z</time><extensions><mytracks:speed>6.120185020258021</mytracks:speed><mytracks:gradient>0.04167178670185584</mytracks:gradient><mytracks:length>0.008604092428044887</mytracks:length></extensions></trkpt><trkpt lat="33.59137447162916" lon="130.3538122034898"><ele>7.163650419896034</ele><time>2025-12-21T08:00:47.08500Z</time><extensions><mytracks:speed>6.159081564310839</mytracks:speed><mytracks:length>0.008596232654386507</mytracks:length></extensions></trkpt><trkpt lat="33.59130192443931" lon="130.3538180674463"><ele>6.381626443947162</ele><time>2025-12-21T08:00:52.53700Z</time><extensions><mytracks:speed>5.338321682924541</mytracks:speed><mytracks:length>0.008085121608957956</mytracks:length></extensions></trkpt><trkpt lat="33.59125628174162" lon="130.3538198132194"><ele>6.110202852278454</ele><time>2025-12-21T08:00:57.52800Z</time><extensions><mytracks:speed>3.662945898021225</mytracks:speed><mytracks:length>0.005077929262848949</mytracks:length></extensions></trkpt><trkpt lat="33.59120736128068" lon="130.3538297436969"><ele>5.321495393928409</ele><time>2025-12-21T08:01:02.52100Z</time><extensions><mytracks:speed>3.977734361740981</mytracks:speed><mytracks:length>0.005516876323721916</mytracks:length></extensions></trkpt><trkpt lat="33.59115561169234" lon="130.3538323197318"><ele>4.934798637930276</ele><time>2025-12-21T08:01:08.01900Z</time><extensions><mytracks:speed>3.770682004608449</mytracks:speed><mytracks:length>0.005759060317761192</mytracks:length></extensions></trkpt><trkpt lat="33.59111576109276" lon="130.3538145351131"><ele>5.352614733134681</ele><time>2025-12-21T08:01:13.01300Z</time><extensions><mytracks:speed>3.408113467221774</mytracks:speed><mytracks:gradient>0.08837544379828964</mytracks:gradient><mytracks:length>0.004727739711927655</mytracks:length></extensions></trkpt><trkpt lat="33.59108025119202" lon="130.3537682002194"><ele>6.183482961537306</ele><time>2025-12-21T08:01:18.00800Z</time><extensions><mytracks:speed>4.203115231607998</mytracks:speed><mytracks:gradient>0.1424823376693964</mytracks:gradient><mytracks:length>0.005831377011307181</mytracks:length></extensions></trkpt><trkpt lat="33.59108755087806" lon="130.3537579595097"><ele>7.136489002568824</ele><time>2025-12-21T08:01:23.00900Z</time><extensions><mytracks:speed>0.901422250219562</mytracks:speed><mytracks:gradient>0.7610151658064926</mytracks:gradient><mytracks:length>0.001252282587590172</mytracks:length></extensions></trkpt><trkpt lat="33.59108398818139" lon="130.3537474829341"><ele>7.880377178084121</ele><time>2025-12-21T08:01:28.00200Z</time><extensions><mytracks:speed>0.7560064760709675</mytracks:speed><mytracks:gradient>0.7094144368367911</mytracks:gradient><mytracks:length>0.001048594639308752</mytracks:length></extensions></trkpt><trkpt lat="33.59102912839207" lon="130.3537627586408"><ele>7.312053538436839</ele><time>2025-12-21T08:01:33.00400Z</time><extensions><mytracks:speed>4.506642038975404</mytracks:speed><mytracks:length>0.006261412937951099</mytracks:length></extensions></trkpt></trkseg></trk></gpx>

